InstituteName,SchoolAddress,SchoolName,Municipality,PhoneNumber
ISTITUTO COMPRENSIVO CENTRO VALSUGANA,"Via Marchi, 14 38050",SCUOLA PRIMARIA RONCHI VALSUGANA,RONCHI VALSUGANA,0461/764581
"ISTITUTO DI ISTRUZIONE ""La Rosa Bianca"" - CAVALESE","Via Gandhi, 1 38033",LICEO DELLE SCIENZE UMANE,CAVALESE,0462/341449
ISTITUTO COMPRENSIVO BRENTONICO,"Via Calzolari - Localita Fontana, 2 38060",,BRENTONICO,0464/395189
ISTITUTO COMPRENSIVO BRENTONICO,"Via Calzolari - Localita Fontana, 2 38060",SCUOLA PRIMARIA BRENTONICO,BRENTONICO,0464/395189
ASSOCIAZIONE PEDAGOGICA STEINERIANA - TRENTO,"Via Conci, 86 38123",,TRENTO,0461/930658
ASSOCIAZIONE PEDAGOGICA STEINERIANA - TRENTO,"Via Conci, 86 38123",ASSOCIAZIONE R. STEINER - PRIMARIA,TRENTO,0461/930658
ASSOCIAZIONE PEDAGOGICA STEINERIANA - TRENTO,"Via Conci, 86 38123",ASSOCIAZIONE R. STEINER - SECONDARIA I GRADO,TRENTO,0461/930658
ASSOCIAZIONE RUDOLF STEINER PER LA PEDAGOGIA APS - ROVERETO,"Via Stazione Mori, 10 38068",,ROVERETO,
ASSOCIAZIONE RUDOLF STEINER PER LA PEDAGOGIA APS - ROVERETO,"Via Stazione Mori, 10 38068",Asilo Colle Fiorito,ROVERETO,0464 434899
COLLEGIO ARCIVESCOVILE C.ENDRICI - TRENTO,"Via Monsignor  Endrici, 23 38122",,TRENTO,0461/1731200
COLLEGIO ARCIVESCOVILE C.ENDRICI - TRENTO,"Via Monsignor  Endrici, 23 38122",ISTITUTO TECNICO PER IL SETTORE ECONOMICO,TRENTO,0461/1731200
COLLEGIO ARCIVESCOVILE C.ENDRICI - TRENTO,"Via Monsignor  Endrici, 23 38122",ISTITUTO TECNICO PER IL SETTORE TECNOLOGICO,TRENTO,0461/1731200
COLLEGIO ARCIVESCOVILE C.ENDRICI - TRENTO,"Via Monsignor  Endrici, 23 38122",LICEO CLASSICO ARCIVESCOVILE - TRENTO,TRENTO,0461/1731200
COLLEGIO ARCIVESCOVILE C.ENDRICI - TRENTO,"Via Monsignor  Endrici, 23 38122",LICEO LINGUISTICO ARCIVESCOVILE - TRENTO,TRENTO,0461/1731200
COLLEGIO ARCIVESCOVILE C.ENDRICI - TRENTO,"Via Monsignor  Endrici, 23 38122",LICEO SCIENTIFICO ARCIVESCOVILE - TRENTO,TRENTO,0461/1731200
COLLEGIO ARCIVESCOVILE C.ENDRICI - TRENTO,"Via Monsignor  Endrici, 23 38122",SCUOLA PRIMARIA ARCIVESCOVILE TRENTO,TRENTO,0461/1731200
COLLEGIO ARCIVESCOVILE C.ENDRICI - TRENTO,"Via Monsignor  Endrici, 23 38122",SCUOLA SECONDARIA DI PRIMO GRADO ARCIVESCOVILE TRENTO,TRENTO,0461/1731200
COLLEGIO ARCIVESCOVILE DAME INGLESI - ROVERETO,"Corso Bettini, 71 38068",,ROVERETO,0464/406000
COLLEGIO ARCIVESCOVILE DAME INGLESI - ROVERETO,"Corso Bettini, 71 38068",LICEO LINGUISTICO ARCIVESCOVILE DAME INGLESI - ROVERETO,ROVERETO,0464/406000
COLLEGIO ARCIVESCOVILE DAME INGLESI - ROVERETO,"Corso Bettini, 31 38068",SCUOLA PRIMARIA ARCIVESCOVILE DAME INGLESI ROVERETO,ROVERETO,0464/406000
COLLEGIO ARCIVESCOVILE DAME INGLESI - ROVERETO,"Corso Bettini, 31 38068",SCUOLA SECONDARIA DI PRIMO GRADO ARCIVESCOVILE DAME INGLESI ROVERETO,ROVERETO,0464/406000
COOPERATIVA SOCIALE SACRA FAMIGLIA ONLUS,"Via Della Saluga, 7 38121",,TRENTO,0461/080041
COOPERATIVA SOCIALE SACRA FAMIGLIA ONLUS,"Via Della Saluga, 7 38121",SCUOLA PRIMARIA SACRA FAMIGLIA TRENTO,TRENTO,0461/080041
"Centro Formazione Professionale ""Centromoda Canossa"" - Trento","Via Grazioli, 2 38122",,TRENTO,0461/260454
"Centro Formazione Professionale ""Centromoda Canossa"" - Trento","Via Grazioli, 2 38122",SETTORE INDUSTRIA E ARTIGIANATO,TRENTO,0461/260454
Centro Formazione Professionale ENAIP - Arco,"Via Gazzoletti, 8 38062",,ARCO,0464/516465
Circolo di coordinamento n. 1,"Via Mercato, 22 38030",Scuola dell'Infanzia di Varena,VILLE DI FIEMME,0462/341301
Circolo di coordinamento n. 2,"Via Temanza, 4 38051",,BORGO VALSUGANA,0461 491980
Circolo di coordinamento n. 2,"Via Ammiraglio Bettolo, 21 38050",Scuola dell'Infanzia di Bieno,BIENO,0461/596247
Circolo di coordinamento n. 2,"Via Alle Scuole - Bosentino, 12 38049",Scuola dell'Infanzia di Bosentino,ALTOPIANO DELLA VIGOLANA,0461/845133
Circolo di coordinamento n. 2,"Localita Lausen, 13 38050",Scuola dell'Infanzia di Canal San Bovo &quot;Lausen&quot;,CANAL SAN BOVO,0439/718979
Circolo di coordinamento n. 2,"Via Venezia, 16/A 38053",Scuola dell'Infanzia di Castello Tesino,CASTELLO TESINO,0461/593023
Circolo di coordinamento n. 2,"Via dei Campi - Centa San Nicolo, 14 38049",Scuola dell'Infanzia di Centa San Nicolò,ALTOPIANO DELLA VIGOLANA,0461/722120
Circolo di coordinamento n. 2,"Via Nazionale, 71 38050",Scuola dell'Infanzia di Imer,IMER,0439/67668
Circolo di coordinamento n. 2,"Via Monsignor Caproni, 1 38056",Scuola dell'Infanzia di Levico Terme &quot;Taita Marcos&quot;,LEVICO TERME,0461/706330
Circolo di coordinamento n. 2,"Via Valle, 4 38050",Scuola dell'Infanzia di Novaledo,NOVALEDO,0461/721100
Circolo di coordinamento n. 2,"Via Venezia, 1 38050",Scuola dell'Infanzia di Tenna &quot;Il sentiero&quot;,TENNA,0461/707635
Circolo di coordinamento n. 2,"Via Giardino - Vattaro, 7 38049",Scuola dell'Infanzia di Vattaro,ALTOPIANO DELLA VIGOLANA,0461/848066
Circolo di coordinamento n. 2,"Via Al Castello - Vigolo Vattaro, 10 38049",Scuola dell'Infanzia di Vigolo Vattaro &quot;Giardino dell'Amicizia&quot;,ALTOPIANO DELLA VIGOLANA,0461/848577
Circolo di coordinamento n. 2,"Via Dei Molini - Agnedo, 39 38059",Scuola dell'Infanzia di Villa Agnedo &quot;Natale Alpino&quot;,CASTEL IVANO,0461/762822
Circolo di coordinamento n. 4,"Via Gilli, 3 38121",,TRENTO,0461/496954
Circolo di coordinamento n. 4,"Frazione Petrolli, 37 38060",Scuola dell'Infanzia di Cimone &quot;Mamma Teresa&quot;,CIMONE,0461/855216
Circolo di coordinamento n. 4,"Via Al Torrione, 10 38122",Scuola dell'Infanzia di Trento  &quot;Torrione&quot;,TRENTO,0461/232554
Circolo di coordinamento n. 4,"Via Del Castel, 1/A 38123",Scuola dell'Infanzia di Trento  Mattarello  &quot;Il Castello&quot;,TRENTO,0461/945095
Centro Formazione Professionale ENAIP - Cles,"Via Mitterer, 10 38023",,CLES,0463/421362
Centro Formazione Professionale ENAIP - Cles,"Via Mitterer, 10 38023",SETTORE INDUSTRIA E ARTIGIANATO,CLES,0463/421362
Centro Formazione Professionale ENAIP - Tesero,"Via Caltrezza, 13 38038",,TESERO,0462/813133
Centro Formazione Professionale ENAIP - Tesero,"Via Caltrezza, 13 38038",SETTORE INDUSTRIA E ARTIGIANATO,TESERO,0462/813133
Centro Formazione Professionale ENAIP - Tesero,"Via Caltrezza, 13 38038",SETTORE SERVIZI,TESERO,0462/813133
Centro Formazione Professionale ENAIP - Tione di Trento,"Via Durone, 57 38079",,TIONE DI TRENTO,0465/321316
Centro Formazione Professionale ENAIP - Tione di Trento,"Via Durone, 57 38079",SETTORE INDUSTRIA E ARTIGIANATO,TIONE DI TRENTO,0465/321316
Centro Formazione Professionale ENAIP - Tione di Trento,"Via Durone, 57 38079",SETTORE SERVIZI,TIONE DI TRENTO,0465/321316
Centro Formazione Professionale ENAIP - Varone di Riva del Garda,"Rione Europa, 3 38066",,RIVA DEL GARDA,0464/521300
Centro Formazione Professionale ENAIP - Varone di Riva del Garda,"Rione Europa, 3 38066",SETTORE SERVIZI,RIVA DEL GARDA,0464/521300
Centro Formazione Professionale ENAIP - Villazzano,"Via Asiago, 14 38123",,TRENTO,0461/920386
Centro Formazione Professionale ENAIP - Villazzano,"Via Asiago, 14 38123",SETTORE INDUSTRIA E ARTIGIANATO,TRENTO,0461/920386
Centro Formazione Professionale Opera Armida Barelli - Levico,"Viale Roma, 61 38056",,LEVICO TERME,0461/706145
Centro Formazione Professionale Opera Armida Barelli - Rovereto,"Via Setaioli, 5 38068",,ROVERETO,0464/433771
Centro Formazione Professionale Opera Armida Barelli - Rovereto,"Via Setaioli, 5 38068",SETTORE SERVIZI,ROVERETO,0464/433771
Centro Formazione Professionale Pavoniano Artigianelli - Trento,"Piazza Di Fiera, 4 38122",,TRENTO,0461/270244
Centro Formazione Professionale Pavoniano Artigianelli - Trento,"Piazza Di Fiera, 4 38122",SETTORE INDUSTRIA E ARTIGIANATO,TRENTO,0461/270244
Centro Formazione Professionale UPT - Arco,"Via Gazzoletti, 10 38062",,ARCO,0464/556585
Centro Formazione Professionale UPT - Cles,"Via D Agostin, 2 38023",,CLES,0463/422820
Centro Formazione Professionale UPT - Rovereto,"Via Pasqui, 10 38068",,ROVERETO,0464/630050
Centro Formazione Professionale UPT - Tione di Trento,"Via Roma, 15 38079",,TIONE DI TRENTO,0465/321889
Centro Formazione Professionale UPT - Trento,"Via Borsieri, 2 38122",,TRENTO,0461/239997
Centro Formazione Professionale UPT - Trento,"Via Borsieri, 2 38122",SETTORE SERVIZI SERALE,TRENTO,0461/239997
Centro Formazione Professionale ENAIP - Primiero,"Via Forno - Transacqua, 12 38054",,PRIMIERO SAN MARTINO DI CASTROZZA,0439/762057
Centro Formazione Professionale ENAIP - Primiero,"Via Forno - Transacqua, 12 38054",SETTORE INDUSTRIA E ARTIGIANATO,PRIMIERO SAN MARTINO DI CASTROZZA,0439/762057
Centro Formazione Professionale ENAIP - Primiero,"Via Forno - Transacqua, 12 38054",SETTORE SERVIZI,PRIMIERO SAN MARTINO DI CASTROZZA,0439/762057
Circolo di coordinamento n. 1,"Viale Dante, 5 38057",,PERGINE VALSUGANA,0461/493491
Circolo di coordinamento n. 1,"Via del Municipio Vecchio, 2 38042",Scuola dell'Infanzia di Baselga di Piné,BASELGA DI PINE',0461/557640
Circolo di coordinamento n. 1,"Piazza Scuole, 3 38030",Scuola dell'Infanzia di Capriana &quot;Maddalena Lazzeri&quot;,CAPRIANA,0462/816377
Circolo di coordinamento n. 1,"Frazione Casatta, 54 38040",Scuola dell'Infanzia di Casatta,VALFLORIANA,0462/910249
Circolo di coordinamento n. 1,"Via Telvana, 4 38045",Scuola dell'Infanzia di Civezzano,CIVEZZANO,0461/858481
Circolo di coordinamento n. 1,"Via S Tommaso, 6 38030",Scuola dell'Infanzia di Daiano,VILLE DI FIEMME,0462/230589
Circolo di coordinamento n. 1,"Maso Ronca, 9 38050",Scuola dell'Infanzia di Fierozzo &quot;Himblring&quot;,FIEROZZO - VLARÖTZ,0461/540044
Circolo di coordinamento n. 1,"Via del Dos di Miola, 13 38042",Scuola dell'Infanzia di Miola di Pinè,BASELGA DI PINE',0461/557950
Circolo di coordinamento n. 1,"Via Segherie, 64/C 38030",Scuola dell'Infanzia di Molina di Fiemme,CASTELLO-MOLINA DI FIEMME,0462/230696
Circolo di coordinamento n. 1,"Via Vittorino da Feltre, 24 38043",Scuola dell'Infanzia di Piazze,BEDOLLO,0461/556518
Circolo di coordinamento n. 1,"Frazione Rizzolaga, 94 38042",Scuola dell'Infanzia di Rizzolaga di Pinè &quot;Raggio di sole&quot;,BASELGA DI PINE',0461/557629
Circolo di coordinamento n. 1,"Localita Pintarei, 9 38050",Scuola dell'Infanzia di S. Orsola &quot;Il girotondo&quot;,SANT'ORSOLA TERME,0461/551163
Circolo di coordinamento n. 1,"Via Alla Villa Wolf - Rovere, 4 38045",Scuola dell'Infanzia di Seregnano &quot;Arcobaleno&quot;,CIVEZZANO,0461/858736
Scuola dell'infanzia di Vigo di Fassa,"Strada Giuseppe Soraperra - Pozza di Fassa, 4 38036",Scuola dell'Infanzia di Vigo di Fassa,SAN GIOVANNI DI FASSA - SEN JAN,0462-763194
Scuola dell'infanzia di Vigo di Ton,"Piazza Guardi, 7 38010",,TON,0461-657897
Scuola dell'infanzia di Vigo di Ton,"Piazza Guardi, 7 38010",Scuola dell'Infanzia di Vigo di Ton,TON,0461-657897
Scuola dell'infanzia di Villamontagna,"Via dei Carli, 16 38121",,TRENTO,0461-209045
Scuola dell'infanzia di Villamontagna,"Via dei Carli, 16 38121",Scuola dell'Infanzia di Villamontagna,TRENTO,0461-209045
Scuola dell'infanzia di Villazzano,"Via Giordano, 15 38123",,TRENTO,0461-920382
Scuola dell'infanzia di Villazzano,"Via Giordano, 15 38123",Scuola dell'Infanzia di Villazzano,TRENTO,0461-920382
Scuola dell'infanzia di Volano,"Via S Maria, 13 38060",,VOLANO,0464-411516
Scuola dell'infanzia di Volano,"Via S Maria, 13 38060",Scuola dell'Infanzia di Volano,VOLANO,0464-411516
"ISTITUTO DI ISTRUZIONE ""M. Martini"" - MEZZOLOMBARDO","Via Perlasca, 4 38017",LICEO SCIENTIFICO,MEZZOLOMBARDO,0461/601122
"ISTITUTO DI ISTRUZIONE ""M. Martini"" - MEZZOLOMBARDO","Via Perlasca, 4 38017",LICEO SCIENTIFICO OPZIONE SCIENZE APPLICATE,MEZZOLOMBARDO,0461/601122
"LICEO DELLE ARTI DI TRENTO E ROVERETO ""Vittoria-Bonporti-Depero""","Via Zambra, 3 38121",,TRENTO,0461/824422
"LICEO DELLE ARTI DI TRENTO E ROVERETO ""Vittoria-Bonporti-Depero""","Via Delle Fosse, 9 38068",LICEO ARTISTICO &quot;Depero&quot;- ROVERETO,ROVERETO,0464/438836
"LICEO DELLE ARTI DI TRENTO E ROVERETO ""Vittoria-Bonporti-Depero""","Via Zambra, 3 38121",LICEO ARTISTICO &quot;Vittoria&quot; - Trento,TRENTO,0461/824422
"LICEO DELLE ARTI DI TRENTO E ROVERETO ""Vittoria-Bonporti-Depero""","Vicolo S Maria Maddalena, 16 38122",LICEO MUSICALE COREUTICO ,TRENTO,0461/260648
ISTITUTO SACRO CUORE - TRENTO,"Piazza S Teresa Verzeri, 4 38122",,TRENTO,0461/981465
ISTITUTO SACRO CUORE - TRENTO,"Piazza S Teresa Verzeri, 4 38122",ISTITUTO TECNICO PER IL SETTORE ECONOMICO,TRENTO,0461/981465
ISTITUTO SACRO CUORE - TRENTO,"Piazza S Teresa Verzeri, 4 38122",ISTITUTO TECNICO PER IL SETTORE TECNOLOGICO,TRENTO,0461/981465
ISTITUTO SACRO CUORE - TRENTO,"Piazza S Teresa Verzeri, 4 38122",LICEO ARTISTICO,TRENTO,0461/981465
ISTITUTO SACRO CUORE - TRENTO,"Piazza S Teresa Verzeri, 4 38122",LICEO DELLE SCIENZE UMANE,TRENTO,0461/981465
ISTITUTO SACRO CUORE - TRENTO,"Piazza S Teresa Verzeri, 4 38122",SCUOLA PRIMARIA SACRO CUORE TRENTO,TRENTO,0461/981465
ISTITUTO SACRO CUORE - TRENTO,"Piazza S Teresa Verzeri, 4 38122",SCUOLA SECONDARIA DI PRIMO GRADO SACRO CUORE TRENTO,TRENTO,0461/981465
ISTITUTO SALESIANO MARIA AUSILIATRICE - TRENTO,"Via Barbacovi, 22 38122",,TRENTO,0461/885555
ISTITUTO SALESIANO MARIA AUSILIATRICE - TRENTO,"Via Barbacovi, 22 38122",SCUOLA SECONDARIA DI PRIMO GRADO MARIA AUSILIATRICE TRENTO,TRENTO,0461/885555
ISTITUTO SALESIANO S. CROCE - MEZZANO,"Via Molaren, 29 38050",,MEZZANO,0439/762019
ISTITUTO SALESIANO S. CROCE - MEZZANO,"Via Molaren, 29 38050",SCUOLA PRIMARIA SANTA CROCE MEZZANO,MEZZANO,0439/762019
ISTITUTO SALESIANO S. CROCE - MEZZANO,"Via Molaren, 29 38050",SCUOLA SECONDARIA DI PRIMO GRADO SANTA CROCE MEZZANO,MEZZANO,0439/762019
"ISTITUTO TECNICO ECONOMICO ""A. Tambosi"" - TRENTO","Via Brigata Acqui, 19 38122",,TRENTO,0461239955
"ISTITUTO TECNICO ECONOMICO ""A. Tambosi"" - TRENTO","Via Brigata Acqui, 19 38122",ISTITUTO TECNICO PER IL SETTORE ECONOMICO,TRENTO,0461239955
"ISTITUTO TECNICO ECONOMICO ""A. Tambosi"" - TRENTO","Via Brigata Acqui, 19 38122",ISTITUTO TECNICO PER IL SETTORE ECONOMICO SERALE,TRENTO,0461239955
"ISTITUTO TECNICO ECONOMICO E TECNOLOGICO ""C.A. Pilati"" - CLES","Via IV Novembre, 35 38023",,CLES,0463/421695
"ISTITUTO TECNICO ECONOMICO E TECNOLOGICO ""C.A. Pilati"" - CLES","Via IV Novembre, 35 38023",EDUCAZIONE PER ADULTI RELATIVA AL PRIMO CICLO,CLES,0463/421695
"ISTITUTO TECNICO ECONOMICO E TECNOLOGICO ""C.A. Pilati"" - CLES","Via IV Novembre, 35 38023",ISTITUTO TECNICO PER IL SETTORE ECONOMICO,CLES,0463/421695
"ISTITUTO TECNICO ECONOMICO E TECNOLOGICO ""C.A. Pilati"" - CLES","Via IV Novembre, 35 38023",ISTITUTO TECNICO PER IL SETTORE ECONOMICO SERALE,CLES,0463/421695
"ISTITUTO TECNICO ECONOMICO E TECNOLOGICO ""C.A. Pilati"" - CLES","Via IV Novembre, 35 38023",ISTITUTO TECNICO PER IL SETTORE TECNOLOGICO,CLES,0463/421695
"ISTITUTO TECNICO ECONOMICO E TECNOLOGICO ""C.A. Pilati"" - CLES","Via IV Novembre, 35 38023",ISTITUTO TECNICO PER IL SETTORE TECNOLOGICO SERALE,CLES,0463/421695
"ISTITUTO TECNICO ECONOMICO E TECNOLOGICO ""F. e G. Fontana"" - ROVERETO","Via Del Teatro, 4 38068",,ROVERETO,0464/436100
"ISTITUTO TECNICO ECONOMICO E TECNOLOGICO ""F. e G. Fontana"" - ROVERETO","Via Del Teatro, 4 38068",ISTITUTO TECNICO PER IL SETTORE ECONOMICO,ROVERETO,0464/436100
"ISTITUTO TECNICO ECONOMICO E TECNOLOGICO ""F. e G. Fontana"" - ROVERETO","Via Del Teatro, 4 38068",ISTITUTO TECNICO PER IL SETTORE ECONOMICO SERALE,ROVERETO,0464/436100
"ISTITUTO TECNICO ECONOMICO E TECNOLOGICO ""F. e G. Fontana"" - ROVERETO","Via Del Teatro, 4 38068",ISTITUTO TECNICO PER IL SETTORE TECNOLOGICO SERALE,ROVERETO,0464/436100
"ISTITUTO TECNICO TECNOLOGICO ""G. Marconi"" - ROVERETO","Via Monti, 1 38068",,ROVERETO,0464/411400
"ISTITUTO TECNICO TECNOLOGICO ""G. Marconi"" - ROVERETO","Via Monti, 1 38068",ISTITUTO TECNICO PER IL SETTORE TECNOLOGICO,ROVERETO,0464/411400
"ISTITUTO TECNICO TECNOLOGICO ""G. Marconi"" - ROVERETO","Via Monti, 1 38068",ISTITUTO TECNICO PER IL SETTORE TECNOLOGICO SERALE,ROVERETO,0464/411400
"ISTITUTO TECNICO TECNOLOGICO ""M. Buonarroti"" - TRENTO","Via Brigata Acqui, 15 38122",,TRENTO,0461/216811
"ISTITUTO TECNICO TECNOLOGICO ""M. Buonarroti"" - TRENTO","Via Brigata Acqui, 15 38122",ISTITUTO TECNICO PER IL SETTORE TECNOLOGICO,TRENTO,0461/216811
"ISTITUTO TECNICO TECNOLOGICO ""M. Buonarroti"" - TRENTO","Via Brigata Acqui, 15 38122",ISTITUTO TECNICO PER IL SETTORE TECNOLOGICO SERALE,TRENTO,0461/216811
"LICEO ""A. Rosmini"" - ROVERETO","Corso Bettini, 86 38068",,ROVERETO,0464/437700
"LICEO ""A. Rosmini"" - ROVERETO","Corso Bettini, 86 38068",LICEO CLASSICO,ROVERETO,0464/437700
"LICEO ""A. Rosmini"" - ROVERETO","Corso Bettini, 86 38068",LICEO LINGUISTICO,ROVERETO,0464/437700
"LICEO ""A. Rosmini"" - ROVERETO","Corso Bettini, 86 38068",LICEO SCIENTIFICO,ROVERETO,0464/437700
"LICEO ""A. Rosmini"" - ROVERETO","Corso Bettini, 86 38068",LICEO SCIENTIFICO OPZIONE SCIENZE APPLICATE,ROVERETO,0464/437700
"LICEO ""A. Rosmini"" - TRENTO","Via Malfatti, 2 38122",EDUCAZIONE PER ADULTI RELATIVA AL PRIMO CICLO,TRENTO,0461/914400
"LICEO ""A. Rosmini"" - TRENTO","Via Malfatti, 2 38122",LICEO DELLE SCIENZE UMANE,TRENTO,0461/914400
"LICEO ""A. Rosmini"" - TRENTO","Via Malfatti, 2 38122",LICEO DELLE SCIENZE UMANE OPZIONE ECONOMICO SOCIALE,TRENTO,0461/914400
"LICEO ""A. Rosmini"" - TRENTO","Via Malfatti, 2 38122",LICEO DELLE SCIENZE UMANE OPZIONE ECONOMICO SOCIALE SERALE,TRENTO,0461/914400
"LICEO ""B. Russell"" - CLES","Via IV Novembre, 35 38023",,CLES,0463/424049
"LICEO ""B. Russell"" - CLES","Via IV Novembre, 35 38023",LICEO CLASSICO,CLES,0463/424049
"LICEO ""B. Russell"" - CLES","Via IV Novembre, 35 38023",LICEO DELLE SCIENZE UMANE,CLES,0463/424049
"LICEO ""B. Russell"" - CLES","Via IV Novembre, 35 38023",LICEO DELLE SCIENZE UMANE OPZIONE ECONOMICO SOCIALE,CLES,0463/424049
"LICEO ""B. Russell"" - CLES","Via IV Novembre, 35 38023",LICEO LINGUISTICO,CLES,0463/424049
"LICEO ""B. Russell"" - CLES","Via IV Novembre, 35 38023",LICEO SCIENTIFICO,CLES,0463/424049
"LICEO ""B. Russell"" - CLES","Via IV Novembre, 35 38023",LICEO SCIENTIFICO OPZIONE SCIENZE APPLICATE,CLES,0463/424049
"LICEO ""F. Filzi"" - ROVERETO","Corso Rosmini, 61 38068",,ROVERETO,0464/421223
"LICEO ""F. Filzi"" - ROVERETO","Corso Rosmini, 61 38068",LICEO DELLE SCIENZE UMANE,ROVERETO,0464/421223
"LICEO ""F. Filzi"" - ROVERETO","Corso Rosmini, 61 38068",LICEO DELLE SCIENZE UMANE OPZIONE ECONOMICO SOCIALE,ROVERETO,0464/421223
"LICEO CLASSICO ""G. Prati"" - TRENTO","Via S Trinita, 38 38122",,TRENTO,0461/980190
"LICEO CLASSICO ""G. Prati"" - TRENTO","Via S Trinita, 38 38122",LICEO CLASSICO,TRENTO,0461/980190
"LICEO SCIENTIFICO ""G. Galilei"" - TRENTO","Viale Bolognini, 88 38122",,TRENTO,0461/913479
"LICEO SCIENTIFICO ""G. Galilei"" - TRENTO","Viale Bolognini, 88 38122",LICEO SCIENTIFICO,TRENTO,0461/913479
"LICEO SCIENTIFICO ""G. Galilei"" - TRENTO","Viale Bolognini, 88 38122",LICEO SCIENTIFICO OPZIONE SCIENZE APPLICATE,TRENTO,0461/913479
"LICEO SCIENTIFICO ""L. Da Vinci"" - TRENTO","Via Madruzzo, 24 38122",LICEO SCIENTIFICO,TRENTO,0461/984099
"LICEO SCIENTIFICO ""L. Da Vinci"" - TRENTO","Via Madruzzo, 24 38122",LICEO SCIENTIFICO OPZIONE SCIENZE APPLICATE,TRENTO,0461/984099
SCUOLA LADINA DI FASSA - SCOLA LADINA DE FASCIA,"Strada Giuseppe Soraperra - Pozza di Fassa, 6 38036",,SAN GIOVANNI DI FASSA - SEN JAN,0462/763702
SCUOLA LADINA DI FASSA - SCOLA LADINA DE FASCIA,"Strada Dolomites - Pozza di Fassa, 7 38036",LICEO ARTISTICO,SAN GIOVANNI DI FASSA - SEN JAN,0462/763702
SCUOLA LADINA DI FASSA - SCOLA LADINA DE FASCIA,"Strada de pra del Monech, 6 38036",LICEO LADINO DELLE LINGUE,SAN GIOVANNI DI FASSA - SEN JAN,0462/763702
SCUOLA LADINA DI FASSA - SCOLA LADINA DE FASCIA,"Strada de pra del Monech, 6 38036",LICEO SCIENTIFICO,SAN GIOVANNI DI FASSA - SEN JAN,0462/763702
SCUOLA LADINA DI FASSA - SCOLA LADINA DE FASCIA,"Piaz Jan Batista Massar - Vigo di Fassa, 14 38039",SCUOLA PRIMARIA &quot;DON G. B. MASSAR&quot; VIGO DI FASSA,SAN GIOVANNI DI FASSA - SEN JAN,0462/763702
SCUOLA LADINA DI FASSA - SCOLA LADINA DE FASCIA,"Strada De Bagnes - Pozza di Fassa, 10 38036",SCUOLA PRIMARIA &quot;DON L. GROSS&quot; POZZA DI FASSA,SAN GIOVANNI DI FASSA - SEN JAN,0462/763702
SCUOLA LADINA DI FASSA - SCOLA LADINA DE FASCIA,"Via de Magoa, 15 38032",SCUOLA PRIMARIA &quot;G. RIZZI&quot; CANAZEI,CANAZEI - CIANACEI,0462/763702
SCUOLA LADINA DI FASSA - SCOLA LADINA DE FASCIA,"Strada don Giovanni Iori, 19 38035",SCUOLA PRIMARIA &quot;PADRE E. CHIOCCHETTI&quot; MOENA,MOENA - MOENA,0462/763702
SCUOLA LADINA DI FASSA - SCOLA LADINA DE FASCIA,"Strada don Giovanni Iori, 19 38035",SCUOLA SECONDARIA DI PRIMO GRADO &quot;DON G. JORI&quot; MOENA,MOENA - MOENA,0462/763702
SCUOLA LADINA DI FASSA - SCOLA LADINA DE FASCIA,"Strèda de Marin, 3/A 38031",SCUOLA SECONDARIA DI PRIMO GRADO &quot;T. SORARUF&quot; CAMPITELLO DI FASSA,CAMPITELLO DI FASSA - CIAMPEDEL,0462/763702
SCUOLA LADINA DI FASSA - SCOLA LADINA DE FASCIA,"Strada Dolomites - Pozza di Fassa, 67 38036",SCUOLA SECONDARIA DI PRIMO GRADO POZZA DI FASSA,SAN GIOVANNI DI FASSA - SEN JAN,0462/763702
"SOCIETA' COOPERATIVA A R.L. ""I. DE CARNERI"" OXFORD CIVEZZANO","Via Murialdo, 30 38045",,CIVEZZANO,0461/857003
"SOCIETA' COOPERATIVA A R.L. ""I. DE CARNERI"" OXFORD CIVEZZANO","Via Murialdo, 30 38045",ISTITUTO PROFESSIONALE PER IL SETTORE DEI SERVIZI,CIVEZZANO,0461/857003
"SOCIETA' COOPERATIVA A R.L. ""I. DE CARNERI"" OXFORD CIVEZZANO","Via Murialdo, 30 38045",ISTITUTO TECNICO PER IL SETTORE ECONOMICO,CIVEZZANO,0461/857003
"SOCIETA' COOPERATIVA A R.L. ""I. DE CARNERI"" OXFORD CIVEZZANO","Via Murialdo, 30 38045",ISTITUTO TECNICO PER IL SETTORE TECNOLOGICO,CIVEZZANO,0461/857003
"SOCIETA' COOPERATIVA A R.L. ""I. DE CARNERI"" OXFORD CIVEZZANO","Via Murialdo, 30 38045",SETTORE SERVIZI,CIVEZZANO,0461/857003
Scuola dell'infanzia di Albiano,"Via S Antonio, 22 38041",,ALBIANO,0461-689486
Scuola dell'infanzia di Albiano,"Via S Antonio, 22 38041",Scuola dell'Infanzia di Albiano,ALBIANO,0461-689486
Scuola dell'infanzia di Aldeno,"Via XXV Aprile, 5 38060",,ALDENO,0461-842597
Scuola dell'infanzia di Aldeno,"Via XXV Aprile, 5 38060",Scuola dell'Infanzia di Aldeno,ALDENO,0461-842597
Scuola dell'infanzia di Andalo,"Via Paganella, 5 38010",,ANDALO,0461-585898
Scuola dell'infanzia di Andalo,"Via Paganella, 5 38010",Scuola dell'Infanzia di Andalo,ANDALO,0461-585898
Scuola dell'infanzia di Arco,"Viale Capitelli, 16 38062",,ARCO,0464-516369
Scuola dell'infanzia di Arco,"Viale Capitelli, 16 38062",Scuola dell'Infanzia di Arco,ARCO,0464-516369
Scuola dell'infanzia di Avio,"Via Dante, 5 38063",,AVIO,0464-684102
Scuola dell'infanzia di Avio,"Via Dante, 5 38063",Scuola dell'Infanzia di Avio,AVIO,0464-684102
Scuola dell'infanzia di Barco di Levico,"Via di S Taddeo, 8 38056",,LEVICO TERME,0461-707295
Scuola dell'infanzia di Barco di Levico,"Via di S Taddeo, 8 38056",Scuola dell'Infanzia di Barco di Levico,LEVICO TERME,0461-707295
Scuola dell'infanzia di Bolognano,"Piazza Vittoria, 1 38062",,ARCO,0464-516315
Scuola dell'infanzia di Bolognano,"Piazza Vittoria, 1 38062",Scuola dell'Infanzia di Bolognano,ARCO,0464-516315
Scuola dell'infanzia di Bondone,"Via Giusti, 46 38080",,BONDONE,0465-299996
Scuola dell'infanzia di Bondone,"Via Giusti, 46 38080",Scuola dell'Infanzia di Bondone,BONDONE,0465-299996
Scuola dell'infanzia di Borgo Sacco,"Via Fedrigotti, 9 38068",,ROVERETO,0464-430541
Scuola dell'infanzia di Borgo Sacco,"Via Fedrigotti, 9 38068",Scuola dell'Infanzia di Borgo Sacco,ROVERETO,0464-430541
Scuola dell'infanzia di Borgo Valsugana,"Piazza Romani, 8 38051",,BORGO VALSUGANA,0461-754771
Scuola dell'infanzia di Borgo Valsugana,"Piazza Romani, 8 38051",Scuola dell'Infanzia di Borgo Valsugana,BORGO VALSUGANA,0461-754771
Scuola dell'infanzia di Brentonico,"Via Mantova, 5 38060",,BRENTONICO,0464-395628
Scuola dell'infanzia di Brentonico,"Via Mantova, 5 38060",Scuola dell'Infanzia di Brentonico,BRENTONICO,0464-395628
Scuola dell'infanzia di Calceranica,"Via Cavour, 2 38050",,CALCERANICA AL LAGO,0461-723325
Scuola dell'infanzia di Calceranica,"Via Cavour, 2 38050",Scuola dell'Infanzia di Calceranica,CALCERANICA AL LAGO,0461-723325
Scuola dell'infanzia di Caldonazzo,"Via Asilo, 1 38052",,CALDONAZZO,0461-724658
Scuola dell'infanzia di Caldonazzo,"Via Asilo, 1 38052",Scuola dell'Infanzia di Caldonazzo,CALDONAZZO,0461-724658
Scuola dell'infanzia di Campitello di Fassa,"Strèda sènc Felip e Giacum, 9 38031",,CAMPITELLO DI FASSA - CIAMPEDEL,0462-750470
Scuola dell'infanzia di Campitello di Fassa,"Strèda sènc Felip e Giacum, 9 38031",Scuola dell'Infanzia di Campitello di Fassa,CAMPITELLO DI FASSA - CIAMPEDEL,0462-750470
Scuola dell'infanzia di Campodenno,"Via S Maurizio, 3 38010",,CAMPODENNO,0461-655166
Scuola dell'infanzia di Campodenno,"Via S Maurizio, 3 38010",Scuola dell'Infanzia di Campodenno,CAMPODENNO,0461-655166
Scuola dell'infanzia di Carano,"Via Giovanelli, 40 38033",,VILLE DI FIEMME,0462-341759
Scuola dell'infanzia di Nave San Rocco,"Via IV Novembre, 34/A 38010",Scuola dell'Infanzia di Nave San Rocco,TERRE D'ADIGE,0461-870656
Scuola dell'infanzia di Nomi,"Via Baroni Del Moll, 2 38060",,NOMI,0464-835294
Scuola dell'infanzia di Nomi,"Via Baroni Del Moll, 2 38060",Scuola dell'Infanzia di Nomi,NOMI,0464-835294
Scuola dell'infanzia di Ospedaletto,"Via XX Settembre, 5 38050",,OSPEDALETTO,347 0362437
Scuola dell'infanzia di Ospedaletto,"Via XX Settembre, 5 38050",Scuola dell'Infanzia di Ospedaletto,OSPEDALETTO,347 0362437
Scuola dell'infanzia di Padergnone,"Via alle Cime - Padergnone, 14 38070",,VALLELAGHI,0461-864358
Scuola dell'infanzia di Padergnone,"Via alle Cime - Padergnone, 14 38070",Scuola dell'Infanzia di Padergnone,VALLELAGHI,0461-864358
Scuola dell'infanzia di Panchià,"Piazza Chiesa, 6 38030",,PANCHIA',0462-814141
Scuola dell'infanzia di Panchià,"Piazza Chiesa, 6 38030",Scuola dell'Infanzia di Panchià,PANCHIA',0462-814141
Scuola dell'infanzia di Pedersano,"Via S Antonio, 1 38060",,VILLA LAGARINA,0464-412151
Scuola dell'infanzia di Pedersano,"Via S Antonio, 1 38060",Scuola dell'Infanzia di Pedersano,VILLA LAGARINA,0464-412151
Scuola dell'infanzia di Pietramurata,"Piazza Mercato, 11 38074",,DRO,0464-507142
Scuola dell'infanzia di Pietramurata,"Piazza Mercato, 11 38074",Scuola dell'Infanzia di Pietramurata,DRO,0464-507142
Scuola dell'infanzia di Pieve Tesino,"Via Fratelli Rizza', 14 38050",,PIEVE TESINO,0461-594733
Scuola dell'infanzia di Pieve Tesino,"Via Fratelli Rizza', 14 38050",Scuola dell'Infanzia di Pieve Tesino,PIEVE TESINO,0461-594733
Scuola dell'infanzia di Pieve di Bono,"Via Fiera - Creto - Pieve di Bono, 9/B 38085",,PIEVE DI BONO-PREZZO,0465-674083
Scuola dell'infanzia di Pieve di Bono,"Via Fiera - Creto - Pieve di Bono, 9/B 38085",Scuola dell'Infanzia di Pieve di Bono,PIEVE DI BONO-PREZZO,0465-674083
Scuola dell'infanzia di Pilcante,"Piazza Vittorio Veneto - Pilcante, 19 38061",,ALA,0464-672588
Scuola dell'infanzia di Pilcante,"Piazza Vittorio Veneto - Pilcante, 19 38061",Scuola dell'Infanzia di Pilcante,ALA,0464-672588
Scuola dell'infanzia di Pinzolo,"Via Al Sole, 43 38086",,PINZOLO,0465-501019
Scuola dell'infanzia di Pinzolo,"Via Al Sole, 43 38086",Scuola dell'Infanzia di Pinzolo,PINZOLO,0465-501019
Scuola dell'infanzia di Ponte Arche,"Via S Giovanni Bosco - Ponte Arche - Bleggio Inferiore, 7 38070",,COMANO TERME,0465-702422
Scuola dell'infanzia di Ponte Arche,"Via S Giovanni Bosco - Ponte Arche - Bleggio Inferiore, 7 38070",Scuola dell'Infanzia di Ponte Arche,COMANO TERME,0465-702422
Scuola dell'infanzia di Povo,"Via Pante', 1 38123",,TRENTO,0461-810049
Scuola dell'infanzia di Povo,"Via Pante', 1 38123",Scuola dell'Infanzia di Povo,TRENTO,0461-810049
Scuola dell'infanzia di Pozza di Trambileno,"Frazione Vanza, 50 38068",,TRAMBILENO,0464-868074
Scuola dell'infanzia di Pozza di Trambileno,"Frazione Vanza, 50 38068",Scuola dell'Infanzia di Pozza di Trambileno,TRAMBILENO,0464-868074
Scuola dell'infanzia di Pressano,"Via Pilati, 16 38015",,LAVIS,0461-240394
Scuola dell'infanzia di Pressano,"Via Pilati, 16 38015",Scuola dell'Infanzia di Pressano,LAVIS,0461-240394
Scuola dell'infanzia di Quadra - Cavrasto,"Frazione Larido, 10 38071",,BLEGGIO SUPERIORE,0465-779575
Scuola dell'infanzia di Quadra - Cavrasto,"Frazione Larido, 10 38071",Scuola dell'Infanzia di Quadra - Cavrasto,BLEGGIO SUPERIORE,0465-779575
"Scuola dell'infanzia di Riva ""Degasperi""","Largo Caduti delle Foibe, 2 38066",,RIVA DEL GARDA,0464-553578
"Scuola dell'infanzia di Riva ""Degasperi""","Largo Caduti delle Foibe, 2 38066",Scuola dell'Infanzia di Riva  &quot;Degasperi&quot;,RIVA DEL GARDA,0464-553578
"Scuola dell'infanzia di Riva del Garda  ""S. Alessandro""","Via S Alessandro, 10 38066",,RIVA DEL GARDA,0464-554051
"Scuola dell'infanzia di Riva del Garda  ""S. Alessandro""","Via S Alessandro, 10 38066",Scuola dell'Infanzia di Riva del Garda  &quot;S. Alessandro&quot;,RIVA DEL GARDA,0464-554051
Scuola dell'infanzia di Roncegno,"Via Baldessari, 15 38050",,RONCEGNO TERME,0461-764199
Scuola dell'infanzia di Roncegno,"Via Baldessari, 15 38050",Scuola dell'Infanzia di Roncegno,RONCEGNO TERME,0461-764199
Scuola dell'infanzia di Ronchi Valsugana,"Via Marchi, 14 38050",,RONCHI VALSUGANA,0461-773197
Scuola dell'infanzia di Ronchi Valsugana,"Via Marchi, 14 38050",Scuola dell'Infanzia di Ronchi Valsugana,RONCHI VALSUGANA,0461-773197
Scuola dell'infanzia di Taio,"Via Edison - Taio, 3 38012",Scuola dell'Infanzia di Taio,PREDAIA,0463-468269
Scuola dell'infanzia di Telve,"Via Paradiso, 1 38050",,TELVE,0461-766315
Scuola dell'infanzia di Telve,"Via Paradiso, 1 38050",Scuola dell'Infanzia di Telve,TELVE,0461-766315
Scuola dell'infanzia di Tenno,"Via Brocchetti, 53 38060",,TENNO,0464-503034
Scuola dell'infanzia di Tenno,"Via Brocchetti, 53 38060",Scuola dell'Infanzia di Tenno,TENNO,0464-503034
Scuola dell'infanzia di Tezze Valsugana,"Via Marconi, 8/A 38055",,GRIGNO,0461-769192
Scuola dell'infanzia di Tezze Valsugana,"Via Marconi, 8/A 38055",Scuola dell'Infanzia di Tezze Valsugana,GRIGNO,0461-769192
Scuola dell'infanzia di Tonadico,"Via Fuganti - Tonadico, 8 38054",,PRIMIERO SAN MARTINO DI CASTROZZA,0439-762062
Scuola dell'infanzia di Tonadico,"Via Fuganti - Tonadico, 8 38054",Scuola dell'Infanzia di Tonadico,PRIMIERO SAN MARTINO DI CASTROZZA,0439-762062
Scuola dell'infanzia di Torbole,"Via Don Davide Gioppi, 72 38069",,NAGO-TORBOLE,0464-505159
Scuola dell'infanzia di Torbole,"Via Don Davide Gioppi, 72 38069",Scuola dell'Infanzia di Torbole,NAGO-TORBOLE,0464-505159
Scuola dell'infanzia di Torcegno,"Via Della Fontana, 15 38050",,TORCEGNO,0461-760796
Scuola dell'infanzia di Torcegno,"Via Della Fontana, 15 38050",Scuola dell'Infanzia di Torcegno,TORCEGNO,0461-760796
Scuola dell'infanzia di Transacqua,"Piazza Municipio - Transacqua, 11 38054",,PRIMIERO SAN MARTINO DI CASTROZZA,0439-62313
Scuola dell'infanzia di Transacqua,"Piazza Municipio - Transacqua, 11 38054",Scuola dell'Infanzia di Transacqua,PRIMIERO SAN MARTINO DI CASTROZZA,0439-62313
"Scuola dell'infanzia di Trento  ""Pedrotti""","Via Asilo Pedrotti, 2 38122",,TRENTO,0461-914039
"Scuola dell'infanzia di Trento  ""Pedrotti""","Via Asilo Pedrotti, 2 38122",Scuola dell'Infanzia di Trento  &quot;Pedrotti&quot;,TRENTO,0461-914039
Scuola dell'infanzia di Trento  Canossiane,"Via Dei Paradisi, 4 38122",,TRENTO,0461-1482248
Scuola dell'infanzia di Trento  Canossiane,"Via Dei Paradisi, 4 38122",Scuola dell'Infanzia di Trento  Canossiane,TRENTO,0461-1482248
Scuola dell'infanzia di Trento  S. Bartolomeo,"Viale Dei Tigli, 9/1 38123",,TRENTO,0461-924555
Scuola dell'infanzia di Trento  S. Bartolomeo,"Viale Dei Tigli, 9/1 38123",Scuola dell'Infanzia di Trento  S. Bartolomeo,TRENTO,0461-924555
"Scuola dell'infanzia di Trento Cognola  ""B. Kofler""","Via Kofler, 10 38121",,TRENTO,0461 235069
"Scuola dell'infanzia di Trento Cognola  ""B. Kofler""","Via Kofler, 10 38121",Scuola dell'Infanzia di Trento Cognola &quot;B. Kofler&quot;,TRENTO,0461 235069
Scuola dell'infanzia di Trento La Clarina,"Via Einaudi, 66 38123",,TRENTO,0461-923464
Scuola dell'infanzia di Trento La Clarina,"Via Einaudi, 66 38123",Scuola dell'Infanzia di Trento La Clarina,TRENTO,0461-923464
"Scuola dell'infanzia di Trento San Donà ""B. Kofler""","Via per Cognola, 43 38122",,TRENTO,0461 260977
"Scuola dell'infanzia di Trento San Donà ""B. Kofler""","Via per Cognola, 43 38122",Scuola dell'Infanzia di Trento San Donà &quot;B. Kofler&quot;,TRENTO,0461 260977
Scuola dell'infanzia di Tuenno,"Via Marconi - Tuenno, 2 38019",,VILLE D'ANAUNIA,0463-451238
Scuola dell'infanzia di Tuenno,"Via Marconi - Tuenno, 2 38019",Scuola dell'Infanzia di Tuenno,VILLE D'ANAUNIA,0463-451238
Scuola dell'infanzia di Varone,"Via Sega, 5 38066",,RIVA DEL GARDA,0464-521350
Scuola dell'infanzia di Varone,"Via Sega, 5 38066",Scuola dell'Infanzia di Varone,RIVA DEL GARDA,0464-521350
Scuola dell'infanzia di Vermiglio,"Via di S Pietro, 26 38029",,VERMIGLIO,0463-758141
Scuola dell'infanzia di Vermiglio,"Via di S Pietro, 26 38029",Scuola dell'Infanzia di Vermiglio,VERMIGLIO,0463-758141
Scuola dell'infanzia di Vezzano,"Via Dante - Vezzano, 24 38070",,VALLELAGHI,0461-864918
Scuola dell'infanzia di Vezzano,"Via Dante - Vezzano, 24 38070",Scuola dell'Infanzia di Vezzano,VALLELAGHI,0461-864918
Scuola dell'infanzia di Vigo Cavedine,"Via Scuola Materna, 1 38073",,CAVEDINE,0461-566061
Scuola dell'infanzia di Vigo Cavedine,"Via Scuola Materna, 1 38073",Scuola dell'Infanzia di Vigo Cavedine,CAVEDINE,0461-566061
Scuola dell'infanzia di Vigo Cortesano,"Via Madonna Dei Prati, 3 38121",,TRENTO,0461-448252
Scuola dell'infanzia di Vigo Cortesano,"Via Madonna Dei Prati, 3 38121",Scuola dell'Infanzia di Vigo Cortesano,TRENTO,0461-448252
Scuola dell'infanzia di Vigo Lomaso,"Frazione Vigo Lomaso - Lomaso, 1 38070",,COMANO TERME,0465-701249
Scuola dell'infanzia di Vigo Lomaso,"Frazione Vigo Lomaso - Lomaso, 1 38070",Scuola dell'Infanzia di Vigo Lomaso,COMANO TERME,0465-701249
Scuola dell'infanzia di Vigo di Fassa,"Strada Giuseppe Soraperra - Pozza di Fassa, 4 38036",,SAN GIOVANNI DI FASSA - SEN JAN,0462-763194
Scuola dell'infanzia di Ghiaie di Gardolo,"Via del Loghét, 69 38121",Scuola dell'Infanzia di Ghiaie di Gardolo,TRENTO,0461-990050
Scuola dell'infanzia di Grigno,"Via Nazario Sauro, 25 38055",,GRIGNO,0461-765333
Scuola dell'infanzia di Grigno,"Via Nazario Sauro, 25 38055",Scuola dell'Infanzia di Grigno,GRIGNO,0461-765333
Scuola dell'infanzia di Ischia di Pergine,"Piazza delle Nogare, 2 38057",,PERGINE VALSUGANA,0461-532285
Scuola dell'infanzia di Ischia di Pergine,"Piazza delle Nogare, 2 38057",Scuola dell'Infanzia di Ischia di Pergine,PERGINE VALSUGANA,0461-532285
Scuola dell'infanzia di Lona,"Via S Rocco, 14 38040",,LONA-LASES,0461-697101
Scuola dell'infanzia di Lona,"Via S Rocco, 14 38040",Scuola dell'Infanzia di Lona,LONA-LASES,0461-697101
Scuola dell'infanzia di Madonna di Campiglio,"Via Serafini - Madonna di Campiglio, 13 38070",,TRE VILLE,0465-442779
Scuola dell'infanzia di Madonna di Campiglio,"Via Serafini - Madonna di Campiglio, 13 38070",Scuola dell'Infanzia di Madonna di Campiglio,TRE VILLE,0465-442779
Scuola dell'infanzia di Madrano,"Via D Oltrefersina, 54 38057",,PERGINE VALSUGANA,0461-552109
Scuola dell'infanzia di Madrano,"Via D Oltrefersina, 54 38057",Scuola dell'Infanzia di Madrano,PERGINE VALSUGANA,0461-552109
Scuola dell'infanzia di Malè,"Via Don Rauzi, 6 38027",,MALE',0463-901925
Scuola dell'infanzia di Malè,"Via Don Rauzi, 6 38027",Scuola dell'Infanzia di Malè,MALE',0463-901925
Scuola dell'infanzia di Marter,"Piazza S Margherita, 2 38050",,RONCEGNO TERME,0461-764505
Scuola dell'infanzia di Marter,"Piazza S Margherita, 2 38050",Scuola dell'Infanzia di Marter,RONCEGNO TERME,0461-764505
"Scuola dell'infanzia di Martignano ""D. Leone Serafini""","Via Sabbionare, 3 38121",,TRENTO,0461-820233
"Scuola dell'infanzia di Martignano ""D. Leone Serafini""","Via Sabbionare, 3 38121",Scuola dell'Infanzia di Martignano,TRENTO,0461-820233
Scuola dell'infanzia di Massone,"Via Maffei - San Martino, 2 38062",,ARCO,0464-517719
Scuola dell'infanzia di Massone,"Via Maffei - San Martino, 2 38062",Scuola dell'Infanzia di Massone,ARCO,0464-517719
Scuola dell'infanzia di Mechel,"Via Don Luigi Borghesi, 35 38023",,CLES,0463-421247
Scuola dell'infanzia di Mechel,"Via Don Luigi Borghesi, 35 38023",Scuola dell'Infanzia di Mechel,CLES,0463-421247
Scuola dell'infanzia di Mezzano,"Via IV Novembre, 16 38050",,MEZZANO,0439-67027
Scuola dell'infanzia di Mezzano,"Via IV Novembre, 16 38050",Scuola dell'Infanzia di Mezzano,MEZZANO,0439-67027
Scuola dell'infanzia di Mezzocorona,"Via S Giovanni Bosco, 4 38016",,MEZZOCORONA,0461-603933
Scuola dell'infanzia di Mezzocorona,"Via S Giovanni Bosco, 4 38016",Scuola dell'Infanzia di Mezzocorona,MEZZOCORONA,0461-603933
Scuola dell'infanzia di Mezzolombardo,"Corso del Popolo, 34/B 38017",,MEZZOLOMBARDO,0461-601324
Scuola dell'infanzia di Mezzolombardo,"Corso del Popolo, 34/B 38017",Scuola dell'Infanzia di Mezzolombardo,MEZZOLOMBARDO,0461-601324
Scuola dell'infanzia di Moena,"Strada don Giovanni Jori, 10 38035",,MOENA - MOENA,0462-573277
Scuola dell'infanzia di Moena,"Strada don Giovanni Jori, 10 38035",Scuola dell'Infanzia di Moena,MOENA - MOENA,0462-573277
Scuola dell'infanzia di Molina di Ledro,"Via Sartori - Molina di Ledro, 25 38067",,LEDRO,0464-508477
Scuola dell'infanzia di Molina di Ledro,"Via Sartori - Molina di Ledro, 25 38067",Scuola dell'Infanzia di Molina di  Ledro,LEDRO,0464-508477
Scuola dell'infanzia di Mollaro,"Via Della Pausa - Mollaro, 1 38012",,PREDAIA,0463-469224
Scuola dell'infanzia di Mollaro,"Via Della Pausa - Mollaro, 1 38012",Scuola dell'Infanzia di Mollaro,PREDAIA,0463-469224
Scuola dell'infanzia di Molveno,"Piazza S Carlo, 20 38018",,MOLVENO,0461-586969
Scuola dell'infanzia di Molveno,"Piazza S Carlo, 20 38018",Scuola dell'Infanzia di Molveno,MOLVENO,0461-586969
Scuola dell'infanzia di Montesover,"Via Capitano Santuari, 1 38048",,SOVER,0461-698351
Scuola dell'infanzia di Montesover,"Via Capitano Santuari, 1 38048",Scuola dell'Infanzia di Montesover,SOVER,0461-698351
Scuola dell'infanzia di Mori,"Via Scuole, 3 38065",,MORI,0464-918156
Scuola dell'infanzia di Mori,"Via Scuole, 3 38065",Scuola dell'Infanzia di Mori,MORI,0464-918156
Scuola dell'infanzia di Nago,"Localita Tezze - Nago,   38069",,NAGO-TORBOLE,0464-506097
Scuola dell'infanzia di Nago,"Localita Tezze - Nago,   38069",Scuola dell'Infanzia di Nago,NAGO-TORBOLE,0464-506097
Scuola dell'infanzia di Nave San Rocco,"Via IV Novembre, 34/A 38010",,TERRE D'ADIGE,0461-870656
Scuola dell'infanzia di Ronzo-Chienis,"Via Del Car, 40 38060",,RONZO-CHIENIS,0464-802944
Scuola dell'infanzia di Ronzo-Chienis,"Via Del Car, 40 38060",Scuola dell'Infanzia di Ronzo-Chienis,RONZO-CHIENIS,0464-802944
"Scuola dell'infanzia di Rovereto  ""Clementino Vannetti""","Via S Maria, 58 38068",,ROVERETO,0464-420061
"Scuola dell'infanzia di Rovereto  ""Clementino Vannetti""","Via S Maria, 58 38068",Scuola dell'Infanzia di Rovereto  &quot;Clementino Vannetti&quot;,ROVERETO,0464-420061
"Scuola dell'infanzia di Rovereto ""Rosmini""","Corso Rosmini, 3 38068",,ROVERETO,0464-421541
"Scuola dell'infanzia di Rovereto ""Rosmini""","Corso Rosmini, 3 38068",Scuola dell'Infanzia di Rovereto &quot;Rosmini&quot;,ROVERETO,0464-421541
Scuola dell'infanzia di S. Croce Bleggio,"Frazione Santa Croce di Bleggio Inferiore, 7 38070",,COMANO TERME,0465-779900
Scuola dell'infanzia di S. Croce Bleggio,"Frazione Santa Croce di Bleggio Inferiore, 7 38070",Scuola dell'Infanzia di S. Croce Bleggio,COMANO TERME,0465-779900
Scuola dell'infanzia di S. Lorenzo in Banale,"Strada del Toat - San Lorenzo, 4 38078",,SAN LORENZO DORSINO,0465-734005
Scuola dell'infanzia di S. Lorenzo in Banale,"Strada del Toat - San Lorenzo, 4 38078",Scuola dell'Infanzia di S. Lorenzo In Banale,SAN LORENZO DORSINO,0465-734005
Scuola dell'infanzia di S. Margherita di Ala,"Via Gazzoletti - Santa Margherita, 35 38061",,ALA,0464-696494
Scuola dell'infanzia di S. Margherita di Ala,"Via Gazzoletti - Santa Margherita, 35 38061",Scuola dell'Infanzia di S. Margherita di Ala,ALA,0464-696494
Scuola dell'infanzia di Sabbionara,"Piazza Conciliazione, 3/B 38063",,AVIO,0464-683225
Scuola dell'infanzia di Sabbionara,"Piazza Conciliazione, 3/B 38063",Scuola dell'Infanzia di Sabbionara,AVIO,0464-683225
Scuola dell'infanzia di San Martino di C.,"Via Laghetto - San Martino Di Castrozza, 30 38054",,PRIMIERO SAN MARTINO DI CASTROZZA,0439-768666
Scuola dell'infanzia di San Martino di C.,"Via Laghetto - San Martino Di Castrozza, 30 38054",Scuola dell'Infanzia di San Martino di C.,PRIMIERO SAN MARTINO DI CASTROZZA,0439-768666
Scuola dell'infanzia di Sarche,"Via Caffaro - Sarche - Calavino, 6 38076",,MADRUZZO,0461-564028
Scuola dell'infanzia di Sarche,"Via Caffaro - Sarche - Calavino, 6 38076",Scuola dell'Infanzia di Sarche,MADRUZZO,0461-564028
Scuola dell'infanzia di Scurelle,"Via Visintainer, 15 38050",,SCURELLE,0461-762268
Scuola dell'infanzia di Scurelle,"Via Visintainer, 15 38050",Scuola dell'Infanzia di Scurelle,SCURELLE,0461-762268
Scuola dell'infanzia di Segno,"Via Sonora - Segno - Taio, 18 38012",,PREDAIA,0463-468064
Scuola dell'infanzia di Segno,"Via Sonora - Segno - Taio, 18 38012",Scuola dell'Infanzia di Segno,PREDAIA,0463-468064
Scuola dell'infanzia di Segonzano,"Frazione Stedro, 80 38047",,SEGONZANO,327-3311981
Scuola dell'infanzia di Segonzano,"Frazione Stedro, 80 38047",Scuola dell'Infanzia di Segonzano,SEGONZANO,327-3311981
Scuola dell'infanzia di Serravalle,"Via Ingenger Tomasi - Serravalle, 5 38061",,ALA,0464-696304
Scuola dell'infanzia di Serravalle,"Via Ingenger Tomasi - Serravalle, 5 38061",Scuola dell'Infanzia di Serravalle,ALA,0464-696304
Scuola dell'infanzia di Siror,"Via Asilo - Siror, 1 38054",,PRIMIERO SAN MARTINO DI CASTROZZA,0439-62790
Scuola dell'infanzia di Siror,"Via Asilo - Siror, 1 38054",Scuola dell'Infanzia di Siror,PRIMIERO SAN MARTINO DI CASTROZZA,0439-62790
Scuola dell'infanzia di Smarano,"Via Torre - Smarano, 6 38012",,PREDAIA,0463-536702
Scuola dell'infanzia di Smarano,"Via Torre - Smarano, 6 38012",Scuola dell'Infanzia di Smarano,PREDAIA,0463-536702
Scuola dell'infanzia di Sopramonte,"Via Canelli - Sopramonte, 5 38123",,TRENTO,0461-867021
Scuola dell'infanzia di Sopramonte,"Via Canelli - Sopramonte, 5 38123",Scuola dell'Infanzia di Sopramonte,TRENTO,0461-867021
Scuola dell'infanzia di Spiazzo Rendena,"Via S Vigilio, 5 38088",,SPIAZZO,0465-801326
Scuola dell'infanzia di Spiazzo Rendena,"Via S Vigilio, 5 38088",Scuola dell'Infanzia di Spiazzo Rendena,SPIAZZO,0465-801326
Scuola dell'infanzia di Spormaggiore,"Via dell Asilo, 2 38010",,SPORMAGGIORE,0461-653390
Scuola dell'infanzia di Spormaggiore,"Via dell Asilo, 2 38010",Scuola dell'Infanzia di Spormaggiore,SPORMAGGIORE,0461-653390
Scuola dell'infanzia di Stenico,"Piazza Dante, 15 38070",,STENICO,0465-771019
Scuola dell'infanzia di Stenico,"Piazza Dante, 15 38070",Scuola dell'Infanzia di Stenico,STENICO,0465-771019
Scuola dell'infanzia di Storo,"Via S Floriano, 22 38089",,STORO,0465-296084
Scuola dell'infanzia di Storo,"Via S Floriano, 22 38089",Scuola dell'Infanzia di Storo,STORO,0465-296084
Scuola dell'infanzia di Strigno,"Piazza IV Novembre - Strigno, 11 38059",,CASTEL IVANO,0461-762327
Scuola dell'infanzia di Strigno,"Piazza IV Novembre - Strigno, 11 38059",Scuola dell'Infanzia di Strigno,CASTEL IVANO,0461-762327
Scuola dell'infanzia di Susà,"Via Dell Asilo, 5 38057",,PERGINE VALSUGANA,0461-538471
Scuola dell'infanzia di Susà,"Via Dell Asilo, 5 38057",Scuola dell'Infanzia di Susà,PERGINE VALSUGANA,0461-538471
Scuola dell'infanzia di Taio,"Via Edison - Taio, 3 38012",,PREDAIA,0463-468269
Scuola dell'infanzia di Carano,"Via Giovanelli, 40 38033",Scuola dell'Infanzia di Carano,VILLE DI FIEMME,0462-341759
Scuola dell'infanzia di Carisolo,"Viale Trento, 4 38080",,CARISOLO,0465-501433
Scuola dell'infanzia di Carisolo,"Viale Trento, 4 38080",Scuola dell'Infanzia di Carisolo,CARISOLO,0465-501433
Scuola dell'infanzia di Casez,"Via della Pontara - Casez, 10 38010",,SANZENO,0463-434219
Scuola dell'infanzia di Casez,"Via della Pontara - Casez, 10 38010",Scuola dell'Infanzia di Casez,SANZENO,0463-434219
Scuola dell'infanzia di Castellano,"Via Caduti, 1 38060",,VILLA LAGARINA,0464-801242
Scuola dell'infanzia di Castellano,"Via Caduti, 1 38060",Scuola dell'Infanzia di Castellano,VILLA LAGARINA,0464-801242
Scuola dell'infanzia di Castello Di Fiemme,"Via Latemar, 2 38030",,CASTELLO-MOLINA DI FIEMME,0462-341153
Scuola dell'infanzia di Castello Di Fiemme,"Via Latemar, 2 38030",Scuola dell'Infanzia di Castello Di Fiemme,CASTELLO-MOLINA DI FIEMME,0462-341153
Scuola dell'infanzia di Cavedine,"Via IV Novembre, 19 38073",,CAVEDINE,0461-568548
Scuola dell'infanzia di Cavedine,"Via IV Novembre, 19 38073",Scuola dell'Infanzia di Cavedine,CAVEDINE,0461-568548
Scuola dell'infanzia di Cembra,"Piazza Zanotelli - Cembra, 1 38034",,CEMBRA LISIGNAGO,0461-680173
Scuola dell'infanzia di Cembra,"Piazza Zanotelli - Cembra, 1 38034",Scuola dell'Infanzia di Cembra,CEMBRA LISIGNAGO,0461-680173
Scuola dell'infanzia di Chizzola,"Via Canestrini - Chizzola, 1 38061",,ALA,0464-696397
Scuola dell'infanzia di Chizzola,"Via Canestrini - Chizzola, 1 38061",Scuola dell'Infanzia di Chizzola,ALA,0464-696397
Scuola dell'infanzia di Cles,"Via Mattioli, 13 38023",,CLES,0463-625164
Scuola dell'infanzia di Cles,"Via Mattioli, 13 38023",Scuola dell'Infanzia di Cles,CLES,0463-625164
Scuola dell'infanzia di Cloz e Brez,"Via di S Stefano, 2/A 38028",,NOVELLA,0463-1980632
Scuola dell'infanzia di Cloz e Brez,"Via di S Stefano, 2/A 38028",Scuola dell'Infanzia di Cloz e Brez,NOVELLA,0463-1980632
Scuola dell'infanzia di Condino,"Via Roma - Condino, 37 38083",,BORGO CHIESE,0465-621009
Scuola dell'infanzia di Condino,"Via Roma - Condino, 37 38083",Scuola dell'Infanzia di Condino,BORGO CHIESE,0465-621009
Scuola dell'infanzia di Coredo,"Via delle antiche fontane - Coredo, 20 38012",,PREDAIA,0463-536416
Scuola dell'infanzia di Coredo,"Via delle antiche fontane - Coredo, 20 38012",Scuola dell'Infanzia di Coredo,PREDAIA,0463-536416
Scuola dell'infanzia di Cristo Re -Trento,"Via Bresadola, 6 38121",,TRENTO,0461-823359
Scuola dell'infanzia di Cristo Re -Trento,"Via Bresadola, 6 38121",Scuola dell'Infanzia di Cristo Re -Trento,TRENTO,0461-823359
Scuola dell'infanzia di Crosano,"Via S Biagio, 30 38060",,BRENTONICO,0464-395693
Scuola dell'infanzia di Crosano,"Via S Biagio, 30 38060",Scuola dell'Infanzia di Crosano,BRENTONICO,0464-395693
Scuola dell'infanzia di Dambel,"Via Garibaldi, 33 38010",,DAMBEL,0463-437181
Scuola dell'infanzia di Dambel,"Via Garibaldi, 33 38010",Scuola dell'Infanzia di Dambel,DAMBEL,0463-437181
Scuola dell'infanzia di Dimaro,"Via Alla Chiesa - Dimaro, 26 38025",,DIMARO FOLGARIDA,0463-974301
Scuola dell'infanzia di Dimaro,"Via Alla Chiesa - Dimaro, 26 38025",Scuola dell'Infanzia di Dimaro,DIMARO FOLGARIDA,0463-974301
Scuola dell'infanzia di Faver,"Via Perlaia - Faver, 17 38030",,ALTAVALLE,328 7310914
Scuola dell'infanzia di Faver,"Via Perlaia - Faver, 17 38030",Scuola dell'Infanzia di Faver,ALTAVALLE,328 7310914
Scuola dell'infanzia di Fiavè,"Piazza S Sebastiano, 24 38075",,FIAVE',0465-735129
Scuola dell'infanzia di Fiavè,"Piazza S Sebastiano, 24 38075",Scuola dell'Infanzia di Fiavè,FIAVE',0465-735129
Scuola dell'infanzia di Fiera di Primiero,"Viale Marconi - Pieve, 1 38054",,PRIMIERO SAN MARTINO DI CASTROZZA,0439-762196
Scuola dell'infanzia di Fiera di Primiero,"Viale Marconi - Pieve, 1 38054",Scuola dell'Infanzia di Fiera di Primiero,PRIMIERO SAN MARTINO DI CASTROZZA,0439-762196
Scuola dell'infanzia di Fondo,"Piazza Don Stefenelli - Fondo, 5 38020",,BORGO D'ANAUNIA,0463-831254
Scuola dell'infanzia di Fondo,"Piazza Don Stefenelli - Fondo, 5 38020",Scuola dell'Infanzia di Fondo,BORGO D'ANAUNIA,0463-831254
Scuola dell'infanzia di Fornace,"Via Del Borgolet, 16 38040",,FORNACE,0461-849351
Scuola dell'infanzia di Fornace,"Via Del Borgolet, 16 38040",Scuola dell'Infanzia di Fornace,FORNACE,0461-849351
Scuola dell'infanzia di Gardolo,"Via S Anna, 9 38121",,TRENTO,0461-990296
Scuola dell'infanzia di Gardolo,"Via S Anna, 9 38121",Scuola dell'Infanzia di Gardolo,TRENTO,0461-990296
Scuola dell'infanzia di Ghiaie di Gardolo,"Via del Loghét, 69 38121",,TRENTO,0461-990050
ISTITUTO COMPRENSIVO TRENTO 6,"Via Canelli - Sopramonte, 1 38123",SCUOLA PRIMARIA &quot;S. PERTINI&quot; SOPRAMONTE,TRENTO,0461/236214
ISTITUTO COMPRENSIVO TRENTO 6,"Localita La Vela, 3 38121",SCUOLA PRIMARIA &quot;SAN VIGILIO&quot; VELA,TRENTO,0461/236214
ISTITUTO COMPRENSIVO TRENTO 6,"Via di Coltura, 7 38123",SCUOLA PRIMARIA CADINE,TRENTO,0461/236214
ISTITUTO COMPRENSIVO TRENTO 6,"Corso Buonarroti, 50 38122",SCUOLA SECONDARIA DI PRIMO GRADO &quot;A. MANZONI&quot; TRENTO,TRENTO,0461/236214
ISTITUTO COMPRENSIVO VAL RENDENA,"Via Serafini - Madonna di Campiglio, 9 38070",SCUOLA PRIMARIA &quot;G. B. RIGHI&quot; MADONNA DI CAMPIGLIO,TRE VILLE,0465/501139
ISTITUTO COMPRENSIVO VAL RENDENA,"Via Collini Borciol, 18 38086",SCUOLA PRIMARIA &quot;N. BOLOGNINI&quot; PINZOLO,PINZOLO,0465/501139
ISTITUTO COMPRENSIVO VAL RENDENA,"Frazione Fisto,  112 38088",SCUOLA PRIMARIA &quot;S. MASSARI&quot; SPIAZZO RENDENA,SPIAZZO,0465/501139
ISTITUTO COMPRENSIVO VAL RENDENA,"Via Regina Elena, 43 38080",SCUOLA PRIMARIA &quot;T. GIUSTINA&quot; CADERZONE,CADERZONE TERME,0465/501139
ISTITUTO COMPRENSIVO VAL RENDENA,"Via Presanella, 23 38086",SCUOLA PRIMARIA &quot;V. GABRIOTTI&quot; GIUSTINO,GIUSTINO,0465/501139
ISTITUTO COMPRENSIVO VAL RENDENA,"Via Verdi, 18/B 38080",SCUOLA PRIMARIA CARISOLO,CARISOLO,0465/501139
ISTITUTO COMPRENSIVO VAL RENDENA,"Via Dare - Dare, 111 38080",SCUOLA PRIMARIA DARE',PORTE DI RENDENA,0465/501139
ISTITUTO COMPRENSIVO VAL RENDENA,"Frazione Fisto,  112 38088",SCUOLA SECONDARIA DI PRIMO GRADO &quot;B. DE AVERARIA&quot; SPIAZZO RENDENA,SPIAZZO,0465/501139
ISTITUTO COMPRENSIVO VAL RENDENA,"Via Serafini - Madonna di Campiglio, 9 38070",SCUOLA SECONDARIA DI PRIMO GRADO &quot;G. B. RIGHI&quot; MADONNA DI CAMPIGLIO,TRE VILLE,0465/501139
ISTITUTO COMPRENSIVO VAL RENDENA,"Via Collini Borciol, 18 38086",SCUOLA SECONDARIA DI PRIMO GRADO &quot;L. DA VINCI&quot; PINZOLO,PINZOLO,0465/501139
ISTITUTO COMPRENSIVO VALLE DEI LAGHI - DRO,"Via Roma - Vezzano, 3 38070",,VALLELAGHI,0461/864026
ISTITUTO COMPRENSIVO VALLE DEI LAGHI - DRO,"Piazza Maria Assunta - Calavino, 1 38076",SCUOLA PRIMARIA CALAVINO,MADRUZZO,0461/864026
ISTITUTO COMPRENSIVO VALLE DEI LAGHI - DRO,"Via Don Negri, 21 38073",SCUOLA PRIMARIA CAVEDINE,CAVEDINE,0461/864026
ISTITUTO COMPRENSIVO VALLE DEI LAGHI - DRO,"Piazza Repubblica,  1 38074",SCUOLA PRIMARIA DRO,DRO,0461/864026
ISTITUTO COMPRENSIVO VALLE DEI LAGHI - DRO,"Piazza Mercato,   38074",SCUOLA PRIMARIA PIETRAMURATA,DRO,0461/864026
ISTITUTO COMPRENSIVO VALLE DEI LAGHI - DRO,"Via Caffaro - Sarche - Calavino, 2 38076",SCUOLA PRIMARIA SARCHE CALAVINO,MADRUZZO,0461/864026
ISTITUTO COMPRENSIVO VALLE DEI LAGHI - DRO,"Via Degasperi - Terlago, 5 38070",SCUOLA PRIMARIA TERLAGO,VALLELAGHI,0461/864026
ISTITUTO COMPRENSIVO VALLE DEI LAGHI - DRO,"Via Roma - Vezzano, 3 38070",SCUOLA PRIMARIA VEZZANO,VALLELAGHI,0461/864026
ISTITUTO COMPRENSIVO VALLE DEI LAGHI - DRO,"Via Don Negri, 21 38073",SCUOLA PRIMARIA VIGO CAVEDINE,CAVEDINE,0461/864026
ISTITUTO COMPRENSIVO VALLE DEI LAGHI - DRO,"Via XXV Aprile, 7 38073",SCUOLA SECONDARIA DI PRIMO GRADO &quot;C. MADRUZZO&quot; CAVEDINE,CAVEDINE,0461/864026
ISTITUTO COMPRENSIVO VALLE DEI LAGHI - DRO,"Via S Antonio, 17 38074",SCUOLA SECONDARIA DI PRIMO GRADO &quot;NUOVA EUROPA&quot; DRO,DRO,0461/864026
ISTITUTO COMPRENSIVO VALLE DEI LAGHI - DRO,"Via Roma - Vezzano, 3 38070",SCUOLA SECONDARIA DI PRIMO GRADO &quot;S. BELLESINI&quot; VEZZANO,VALLELAGHI,0461/864026
ISTITUTO COMPRENSIVO VALLE DI LEDRO,"Via Falcone e Borsellino - Bezzecca, 2 38067",,LEDRO,0464/592800
ISTITUTO COMPRENSIVO VALLE DI LEDRO,"Via dei Concei - Enguiso - Concei, 27 38067",SCUOLA PRIMARIA &quot;O. FERRARI&quot; ENGUISO,LEDRO,0464/592800
ISTITUTO COMPRENSIVO VALLE DI LEDRO,"Via Sartori - Molina di Ledro, 27 38067",SCUOLA PRIMARIA MOLINA DI LEDRO,LEDRO,0464/592800
ISTITUTO COMPRENSIVO VALLE DI LEDRO,"Piazza Milin - Tiarno di Sopra, 14 38067",SCUOLA PRIMARIA TIARNO DI SOPRA,LEDRO,0464/592800
ISTITUTO COMPRENSIVO VALLE DI LEDRO,"Via Falcone e Borsellino - Bezzecca, 2 38067",SCUOLA SECONDARIA DI PRIMO GRADO &quot;G. GARIBALDI&quot; BEZZECCA,LEDRO,0464/592800
ISTITUTO COMPRENSIVO VIGOLO VATTARO,"Via Garibaldi - Vigolo Vattaro, 8 38049",,ALTOPIANO DELLA VIGOLANA,0461/848878
ISTITUTO COMPRENSIVO VIGOLO VATTARO,"Via Venezia - Bosentino, 12/A 38049",SCUOLA PRIMARIA &quot;A. FOGAZZARO&quot; VATTARO,ALTOPIANO DELLA VIGOLANA,0461/848878
ISTITUTO COMPRENSIVO VIGOLO VATTARO,"Via Don Rossi - Centa San Nicolo, 4 38049",SCUOLA PRIMARIA &quot;DON T. SEGNANA&quot; CENTA SAN NICOLO',ALTOPIANO DELLA VIGOLANA,0461/848878
ISTITUTO COMPRENSIVO VIGOLO VATTARO,"Via Garibaldi - Vigolo Vattaro, 8 38049",SCUOLA PRIMARIA VIGOLO VATTARO,ALTOPIANO DELLA VIGOLANA,0461/848878
ISTITUTO COMPRENSIVO VIGOLO VATTARO,"Via Garibaldi - Vigolo Vattaro, 8 38049",SCUOLA SECONDARIA DI PRIMO GRADO VIGOLO VATTARO,ALTOPIANO DELLA VIGOLANA,0461/848878
ISTITUTO COMPRENSIVO VILLA LAGARINA,"Via Stockstadt Am Rhein, 3 38060",,VILLA LAGARINA,0464/411312
ISTITUTO COMPRENSIVO VILLA LAGARINA,"Via Romani, 12 38060",SCUOLA PRIMARIA &quot;L. VICENTINI&quot; NOMI,NOMI,0464/411312
ISTITUTO COMPRENSIVO VILLA LAGARINA,"Piazzale Colonello Angheben, 5 38060",SCUOLA PRIMARIA &quot;R. GALVAGNI&quot; POMAROLO,POMAROLO,0464/411312
ISTITUTO COMPRENSIVO VILLA LAGARINA,"Via Verdi, 44 38060",SCUOLA PRIMARIA NOGAREDO,NOGAREDO,0464/411312
ISTITUTO COMPRENSIVO CENTRO VALSUGANA,"Via Don Meggio, 2/A 38050",,RONCEGNO TERME,0461/764581
ISTITUTO COMPRENSIVO CENTRO VALSUGANA,"Piazza Municipio, 5 38050",SCUOLA PRIMARIA &quot;C. CORRADI&quot; NOVALEDO,NOVALEDO,0461/764581
ISTITUTO COMPRENSIVO CENTRO VALSUGANA,"Via Baldessari, 15 38050",SCUOLA PRIMARIA &quot;P. MARTINELLI&quot; RONCEGNO TERME,RONCEGNO TERME,0461/764581
ISTITUTO COMPRENSIVO CENTRO VALSUGANA,"Piazza Municipio, 4 38050",SCUOLA PRIMARIA &quot;T. V. GOZZER&quot; CASTELNUOVO,CASTELNUOVO,0461/764581
ISTITUTO COMPRENSIVO CENTRO VALSUGANA,"Via Della Chiesa, 14 38050",SCUOLA PRIMARIA MARTER,RONCEGNO TERME,0461/764581
ISTITUTO COMPRENSIVO CENTRO VALSUGANA,"Via Giusti, 5 38050",SCUOLA PRIMARIA TELVE,TELVE,0461/764581
ISTITUTO COMPRENSIVO CENTRO VALSUGANA,"Via delle Scuole, 19 38050",SCUOLA PRIMARIA TELVE DI SOPRA,TELVE DI SOPRA,0461/764581
ISTITUTO COMPRENSIVO CENTRO VALSUGANA,"Via Borgo, 2/A 38050",SCUOLA SECONDARIA DI PRIMO GRADO &quot;DON L. MILANI&quot; TELVE,TELVE,0461/764581
ISTITUTO COMPRENSIVO CENTRO VALSUGANA,"Via Don Meggio, 2/A 38050",SCUOLA SECONDARIA DI PRIMO GRADO &quot;M. POLA&quot; RONCEGNO TERME,RONCEGNO TERME,0461/764581
ISTITUTO COMPRENSIVO CIVEZZANO,"Via Murialdo, 27 38045",,CIVEZZANO,0461/858485
ISTITUTO COMPRENSIVO CIVEZZANO,"Via Dei Mori, 2 38040",SCUOLA PRIMARIA &quot;A. GIRARDI&quot; FORNACE,FORNACE,0461/858485
ISTITUTO COMPRENSIVO CIVEZZANO,"Via Manzoni, 4 38041",SCUOLA PRIMARIA ALBIANO,ALBIANO,0461/858485
ISTITUTO COMPRENSIVO CIVEZZANO,"Frazione Cogatti,   38045",SCUOLA PRIMARIA SEREGNANO CIVEZZANO,CIVEZZANO,0461/858485
ISTITUTO COMPRENSIVO CIVEZZANO,"Via Murialdo, 27 38045",SCUOLA SECONDARIA DI PRIMO GRADO &quot;G. ALESSANDRINI&quot; CIVEZZANO,CIVEZZANO,0461/858485
ISTITUTO COMPRENSIVO CIVEZZANO,"Via Manzoni, 10 38041",SCUOLA SECONDARIA DI PRIMO GRADO ALBIANO,ALBIANO,0461/858485
"ISTITUTO COMPRENSIVO DEL CHIESE ""Don L. Milani""","Via Papaleoni, 5 38089",,STORO,0465/686039
"ISTITUTO COMPRENSIVO DEL CHIESE ""Don L. Milani""","Via La Marmora - Condino, 13 38083",SCUOLA PRIMARIA &quot;G. PAPALEONI&quot; CONDINO,BORGO CHIESE,0465/686039
"ISTITUTO COMPRENSIVO DEL CHIESE ""Don L. Milani""","Via Papaleoni, 5 38089",SCUOLA PRIMARIA &quot;PADRE C. GNESOTTI&quot; STORO,STORO,0465/686039
"ISTITUTO COMPRENSIVO DEL CHIESE ""Don L. Milani""","Via Fiera - Creto - Pieve di Bono, 1 38085",SCUOLA PRIMARIA PIEVE DI BONO - CRETO,PIEVE DI BONO-PREZZO,0465/674049
"ISTITUTO COMPRENSIVO DEL CHIESE ""Don L. Milani""","Via XXIV Maggio, 115 38089",SCUOLA PRIMARIA STORO - LODRONE,STORO,0465/686039
"ISTITUTO COMPRENSIVO DEL CHIESE ""Don L. Milani""","Via Papaleoni, 5 38089",SCUOLA SECONDARIA DI PRIMO GRADO &quot;G. LEOPARDI&quot; STORO,STORO,0465/686039
"ISTITUTO COMPRENSIVO DEL CHIESE ""Don L. Milani""","Via Fiera - Creto - Pieve di Bono, 1 38085",SCUOLA SECONDARIA DI PRIMO GRADO &quot;G. PASCOLI&quot; PIEVE DI BONO,PIEVE DI BONO-PREZZO,0465/674049
ISTITUTO COMPRENSIVO FOLGARIA - LAVARONE - LUSERNA,"Via Battisti, 24 38064",,FOLGARIA,0464/721283
ISTITUTO COMPRENSIVO FOLGARIA - LAVARONE - LUSERNA,"Via D Acquisto, 21/A 38064",SCUOLA PRIMARIA &quot;S. LAUTON&quot; FOLGARIA,FOLGARIA,0464/721283
ISTITUTO COMPRENSIVO FOLGARIA - LAVARONE - LUSERNA,"Frazione Gionghi,  107/5 38046",SCUOLA PRIMARIA LAVARONE,LAVARONE,0464/721283
ISTITUTO COMPRENSIVO FOLGARIA - LAVARONE - LUSERNA,"Frazione Gionghi, 107/6 38046",SCUOLA SECONDARIA DI PRIMO GRADO &quot;G. PRATI&quot; LAVARONE,LAVARONE,0464/721283
ISTITUTO COMPRENSIVO FOLGARIA - LAVARONE - LUSERNA,"Via Battisti, 24 38064",SCUOLA SECONDARIA DI PRIMO GRADO &quot;P. RELLA&quot; FOLGARIA,FOLGARIA,0464/721283
ISTITUTO COMPRENSIVO FOLGARIA - LAVARONE - LUSERNA,"Via Roma, 30 38064",Scuola dell'Infanzia di Folgaria,FOLGARIA,0464/721362
ISTITUTO COMPRENSIVO FOLGARIA - LAVARONE - LUSERNA,"Frazione Gionghi,   38046",Scuola dell'Infanzia di Lavarone &quot;Casa dell'Arcobaleno&quot;,LAVARONE,0464/783098
ISTITUTO COMPRENSIVO FOLGARIA - LAVARONE - LUSERNA,"Via Mazzini - Prundle, 7 38040",Scuola dell'Infanzia di Luserna,LUSERNA - LUSÉRN,0464/789608
ISTITUTO COMPRENSIVO FOLGARIA - LAVARONE - LUSERNA,"Via Prati, 35 38064",Scuola dell'Infanzia di Nosellari Folgaria,FOLGARIA,0464/787010
ISTITUTO COMPRENSIVO FONDO - REVO',"Via Laviosa Zambotti - Fondo, 24 38020",,BORGO D'ANAUNIA,0463/831134
ISTITUTO COMPRENSIVO FONDO - REVO',"Via Delle Maddalene, 7 38028",SCUOLA PRIMARIA &quot;C.A. Martini&quot; REVO',NOVELLA,0463/831134
ISTITUTO COMPRENSIVO FONDO - REVO',"Via Monsignor Rosati, 1 38010",SCUOLA PRIMARIA &quot;MADRE TERESA DI CALCUTTA&quot; ROMENO,ROMENO,0463/831134
Circolo di coordinamento n. 9,"Frazione Piazza di Terragnolo, 14 38060",Scuola dell'Infanzia di Terragnolo Piazza,TERRAGNOLO,0464 436345
Coordinamento pedagogico scuole provinciali dell'infanzia ladine,"Strada Giuseppe Soraperra - Pozza di Fassa, 6 38036",,SAN GIOVANNI DI FASSA - SEN JAN,0462/760340
Coordinamento pedagogico scuole provinciali dell'infanzia ladine,"Via de Magoa, 24 38032",Scuola dell'Infanzia di Canazei &quot;Don Simone Micheluzzi de Ciciol&quot;,CANAZEI - CIANACEI,0462/601631
Coordinamento pedagogico scuole provinciali dell'infanzia ladine,"Piaza don Giuseppe Antonio Vian - Pozza di Fassa, 3 38036",Scuola dell'Infanzia di Pera di Fassa &quot;don Edy Cinzol&quot;,SAN GIOVANNI DI FASSA - SEN JAN,0462/764828
Coordinamento pedagogico scuole provinciali dell'infanzia ladine,"Strada Dolomites, 19 38030",Scuola dell'Infanzia di Soraga,SORAGA - SORAGA,0462/768277
GARDASCUOLA SOCIETA' COOPERATIVA SOCIALE - ARCO,"Via XXIV Maggio, 1 38062",,ARCO,0464/519546
GARDASCUOLA SOCIETA' COOPERATIVA SOCIALE - ARCO,"Via XXIV Maggio, 1 38062",ISTITUTO TECNICO PER IL SETTORE ECONOMICO,ARCO,0464/519546
GARDASCUOLA SOCIETA' COOPERATIVA SOCIALE - ARCO,"Via XXIV Maggio, 1 38062",LICEO SCIENTIFICO OPZIONE SCIENZE APPLICATE,ARCO,0464/519546
GARDASCUOLA SOCIETA' COOPERATIVA SOCIALE - ARCO,"Via XXIV Maggio, 1 38062",SCUOLA PRIMARIA GARDASCUOLA ARCO,ARCO,0464/519546
GARDASCUOLA SOCIETA' COOPERATIVA SOCIALE - ARCO,"Via XXIV Maggio, 1 38062",SCUOLA SECONDARIA DI PRIMO GRADO GARDASCUOLA ARCO,ARCO,0464/519546
Giuseppe Veronesi - Centro di istruzione scolastica e di formazione professionale,"Piazzale Orsi, 1 38068",,ROVERETO,0464/433484
Giuseppe Veronesi - Centro di istruzione scolastica e di formazione professionale,"Piazzale Orsi, 1 38068",LICEO SCIENTIFICO OPZIONE SCIENZE APPLICATE,ROVERETO,0464/433484
Giuseppe Veronesi - Centro di istruzione scolastica e di formazione professionale,"Piazzale Orsi, 1 38068",SETTORE INDUSTRIA E ARTIGIANATO,ROVERETO,0464/433484
"ISTITUTO COMPRENSIVO ALA ""Antonio Bresciani""","Via Don Anzelini, 2 38061",,ALA,0464/671119
"ISTITUTO COMPRENSIVO ALA ""Antonio Bresciani""","Via Betta, 9 38061",SCUOLA PRIMARIA &quot;A. BETTA&quot; ALA,ALA,0464/671027
"ISTITUTO COMPRENSIVO ALA ""Antonio Bresciani""","Via Negrelli - Serravalle, 10 38061",SCUOLA PRIMARIA &quot;M.T. di Calcutta&quot; SERRAVALLE,ALA,0464/696606
"ISTITUTO COMPRENSIVO ALA ""Antonio Bresciani""","Via Don Anzelini, 2 38061",SCUOLA SECONDARIA DI PRIMO GRADO &quot;C. BATTISTI&quot; ALA,ALA,0464/671119
ISTITUTO COMPRENSIVO ALDENO MATTARELLO,"Via Della Torre Franca, 1 38123",,TRENTO,0461/945237
ISTITUTO COMPRENSIVO ALDENO MATTARELLO,"Via XXV Aprile, 1 38060",SCUOLA PRIMARIA ALDENO,ALDENO,0461/842264
ISTITUTO COMPRENSIVO ALDENO MATTARELLO,"Frazione Petrolli, 37 38060",SCUOLA PRIMARIA CIMONE,CIMONE,0461/855215
ISTITUTO COMPRENSIVO ALDENO MATTARELLO,"Via Poli, 11 38123",SCUOLA PRIMARIA MATTARELLO,TRENTO,0461/945376
ISTITUTO COMPRENSIVO ALDENO MATTARELLO,"Via Ai Comuni, 6 38123",SCUOLA PRIMARIA ROMAGNANO TRENTO,TRENTO,0461/349119
ISTITUTO COMPRENSIVO ALDENO MATTARELLO,"Via Della Torre Franca, 1 38123",SCUOLA SECONDARIA DI PRIMO GRADO &quot;A. FOGAZZARO&quot; MATTARELLO,TRENTO,0461/945237
ISTITUTO COMPRENSIVO ALDENO MATTARELLO,"Via Alle Albere, 1 38060",SCUOLA SECONDARIA DI PRIMO GRADO ALDENO,ALDENO,0461/842823
ISTITUTO COMPRENSIVO ALTA VAL DI SOLE,"Via S Michele, 11 38026",,OSSANA,0463/751129
ISTITUTO COMPRENSIVO ALTA VAL DI SOLE,"Via Di S Antonio, 21 38026",SCUOLA PRIMARIA &quot;E. BEZZI&quot; OSSANA,OSSANA,0463/751261
ISTITUTO COMPRENSIVO ALTA VAL DI SOLE,"Via Rosmini, 6 38024",SCUOLA PRIMARIA COGOLO DI PEIO,PEIO,0463/754498
ISTITUTO COMPRENSIVO ALTA VAL DI SOLE,"Via Del Comun, 5 38020",SCUOLA PRIMARIA COMMEZZADURA,COMMEZZADURA,0463/751129
ISTITUTO COMPRENSIVO ALTA VAL DI SOLE,"Via Nazionale, 12/C 38029",SCUOLA PRIMARIA PASSO TONALE,VERMIGLIO,0364/903859
ISTITUTO COMPRENSIVO ALTA VAL DI SOLE,"Via Dei Baschenis, 7 38020",SCUOLA PRIMARIA PELLIZZANO,PELLIZZANO,0463/751018
ISTITUTO COMPRENSIVO ALTA VAL DI SOLE,"Via Senatore Kessler, 5 38029",SCUOLA PRIMARIA VERMIGLIO,VERMIGLIO,0463/758373
ISTITUTO COMPRENSIVO ALTA VAL DI SOLE,"Via S Michele, 11 38026",SCUOLA SECONDARIA DI PRIMO GRADO &quot;C. ZANELLA&quot; FUCINE DI OSSANA,OSSANA,0463/751129
ISTITUTO COMPRENSIVO ALTA VALLAGARINA,"Via Stazione, 30 38060",,VOLANO,0464/410475
ISTITUTO COMPRENSIVO ALTA VALLAGARINA,"Via Degasperi, 4 38060",SCUOLA PRIMARIA &quot;A.DE VALENTINI&quot; CALLIANO,CALLIANO,0464/410475
ISTITUTO COMPRENSIVO ALTA VALLAGARINA,"Via Stazione, 30 38060",SCUOLA PRIMARIA &quot;G. TOVAZZI&quot; VOLANO,VOLANO,0464/410475
ISTITUTO COMPRENSIVO ALTA VALLAGARINA,"Via Degasperi, 2 38060",SCUOLA PRIMARIA &quot;S. PELLICO&quot; BESENELLO,BESENELLO,0464/410475
ISTITUTO COMPRENSIVO ALTA VALLAGARINA,"Via Manzoni, 3 38068",SCUOLA SECONDARIA DI PRIMO GRADO &quot;ALTA VALLAGARINA&quot; VOLANO,ROVERETO,0464/410475
ISTITUTO COMPRENSIVO ALTOPIANO DI PINE',"Via del XXVI Maggio - Baselga, 6 38042",,BASELGA DI PINE',0461/557138
ISTITUTO COMPRENSIVO ALTOPIANO DI PINE',"Via S Osvaldo, 5 38043",SCUOLA PRIMARIA  &quot;ABRAMO ANDREATTA&quot; BEDOLLO,BEDOLLO,0461/556844
ISTITUTO COMPRENSIVO ALTOPIANO DI PINE',"Via delle Scuole, 15 38042",SCUOLA PRIMARIA &quot;G. DALLAFIOR&quot; BASELGA DI PINE',BASELGA DI PINE',0461/558317
ISTITUTO COMPRENSIVO ALTOPIANO DI PINE',"Via della Chiesa, 3 38042",SCUOLA PRIMARIA &quot;G. VERDI&quot; MIOLA BASELGA DI PINE',BASELGA DI PINE',0461/558300
ISTITUTO COMPRENSIVO ALTOPIANO DI PINE',"Via del XXVI Maggio - Baselga, 6 38042",SCUOLA SECONDARIA DI PRIMO GRADO &quot;DON GIUSEPPE TARTER&quot;BASELGA DI PINE',BASELGA DI PINE',0461/557138
ISTITUTO COMPRENSIVO ARCO,"Localita Prabi,   38062",,ARCO,0464/516429
ISTITUTO COMPRENSIVO ARCO,"Via Nas, 28 38062",SCUOLA PRIMARIA &quot;G. SEGANTINI&quot; ARCO,ARCO,0464/516122
ISTITUTO COMPRENSIVO PERGINE 1,"Via Monte Cristallo, 2 38057",,PERGINE VALSUGANA,0461/532261
ISTITUTO COMPRENSIVO PERGINE 1,"Via Monte Cristallo, 2 38057",SCUOLA PRIMARIA &quot;DON L. MILANI&quot; PERGINE VALSUGANA,PERGINE VALSUGANA,0461/532261
ISTITUTO COMPRENSIVO PERGINE 1,"Via Delle Scuole, 4 38057",SCUOLA PRIMARIA CANEZZA,PERGINE VALSUGANA,0461/532261
ISTITUTO COMPRENSIVO PERGINE 1,"Maso Ronca, 1 38050",SCUOLA PRIMARIA S.FELICE FIEROZZO,FIEROZZO - VLARÖTZ,0461/532261
ISTITUTO COMPRENSIVO PERGINE 1,"Localita Pintarei, 21 38050",SCUOLA PRIMARIA SANT'ORSOLA,SANT'ORSOLA TERME,0461/532261
ISTITUTO COMPRENSIVO PERGINE 1,"Via Dei Spiazzi, 3 38057",SCUOLA PRIMARIA ZIVIGNAGO,PERGINE VALSUGANA,0461/532261
ISTITUTO COMPRENSIVO PERGINE 1,"Via Caduti, 39 38057",SCUOLA SECONDARIA DI PRIMO GRADO &quot;C. ANDREATTA&quot; PERGINE VALSUGANA,PERGINE VALSUGANA,0461/532261
"ISTITUTO COMPRENSIVO PERGINE 2 ""C. Freinet""","Via Amstetten, 4 38057",,PERGINE VALSUGANA,0461/512312
"ISTITUTO COMPRENSIVO PERGINE 2 ""C. Freinet""","Via Chimelli, 10 38057",SCUOLA PRIMARIA &quot;G. RODARI&quot; PERGINE VALSUGANA,PERGINE VALSUGANA,0461/512312
"ISTITUTO COMPRENSIVO PERGINE 2 ""C. Freinet""","Viale delle Nazioni Unite, 44 38057",SCUOLA PRIMARIA CANALE,PERGINE VALSUGANA,0461/512312
"ISTITUTO COMPRENSIVO PERGINE 2 ""C. Freinet""","Via D Oltrefersina, 149 38057",SCUOLA PRIMARIA MADRANO,PERGINE VALSUGANA,0461/512312
"ISTITUTO COMPRENSIVO PERGINE 2 ""C. Freinet""","Via Don Sopperra, 61 38057",SCUOLA PRIMARIA SUSA',PERGINE VALSUGANA,0461/512312
"ISTITUTO COMPRENSIVO PERGINE 2 ""C. Freinet""","Via Amstetten, 4 38057",SCUOLA SECONDARIA DI PRIMO GRADO &quot;T. GARBARI&quot; PERGINE VALSUGANA,PERGINE VALSUGANA,0461/512312
ISTITUTO COMPRENSIVO PREDAZZO TESERO PANCHIA' ZIANO,"Corso Degasperi, 8 38037",,PREDAZZO,0462/501131
ISTITUTO COMPRENSIVO PREDAZZO TESERO PANCHIA' ZIANO,"Via Fia, 11/A 38038",SCUOLA PRIMARIA &quot;G. MANEGA&quot; TESERO,TESERO,0462/813197
ISTITUTO COMPRENSIVO PREDAZZO TESERO PANCHIA' ZIANO,"Piazza Italia, 4 38030",SCUOLA PRIMARIA &quot;I. MASIA&quot; ZIANO DI FIEMME,ZIANO DI FIEMME,0462/571163
ISTITUTO COMPRENSIVO PREDAZZO TESERO PANCHIA' ZIANO,"Corso Degasperi, 8 38037",SCUOLA PRIMARIA &quot;M. MORANDINI DEGASPERI&quot; PREDAZZO,PREDAZZO,0462/501131
ISTITUTO COMPRENSIVO PREDAZZO TESERO PANCHIA' ZIANO,"Via Fia, 11/A 38038",SCUOLA SECONDARIA DI PRIMO GRADO &quot;G. ALBERTI&quot; TESERO,TESERO,0462/501131
ISTITUTO COMPRENSIVO PREDAZZO TESERO PANCHIA' ZIANO,"Via Vardabasso, 3 38037",SCUOLA SECONDARIA DI PRIMO GRADO &quot;MARZARI PENCATI&quot; PREDAZZO,PREDAZZO,0462/501131
"ISTITUTO COMPRENSIVO RIVA 2 ""L. Pizzini""","Piazza Contini, 8 38066",,RIVA DEL GARDA,0464/552170
"ISTITUTO COMPRENSIVO RIVA 2 ""L. Pizzini""","Largo Caduti delle Foibe, 3 38066",SCUOLA PRIMARIA &quot;A. ZADRA&quot; RIONE DEGASPERI RIVA DEL GARDA,RIVA DEL GARDA,0464/552170
"ISTITUTO COMPRENSIVO RIVA 2 ""L. Pizzini""","Piazza della Chiesa, 13 38066",SCUOLA PRIMARIA &quot;G. FEDRIGONI&quot; VARONE RIVA DEL GARDA,RIVA DEL GARDA,0464/552170
"ISTITUTO COMPRENSIVO RIVA 2 ""L. Pizzini""","Via dei laghi, 47 38060",SCUOLA PRIMARIA &quot;O. LUCCHI&quot; TENNO,TENNO,0464/552170
"ISTITUTO COMPRENSIVO RIVA 2 ""L. Pizzini""","Piazza Contini, 8 38066",SCUOLA SECONDARIA DI PRIMO GRADO &quot;S. SIGHELE&quot; RIVA DEL GARDA,RIVA DEL GARDA,0464/552170
ISTITUTO COMPRENSIVO ROVERETO NORD,"Corso Bettini, 67 38068",,ROVERETO,0464/420759
ISTITUTO COMPRENSIVO ROVERETO NORD,"Via Romani,  42/1 38068",SCUOLA PRIMARIA &quot;D. CHIESA&quot; NORIGLIO,ROVERETO,0464/420759
ISTITUTO COMPRENSIVO ROVERETO NORD,"Via Puccini, 22 38068",SCUOLA PRIMARIA &quot;M. K. GANDHI&quot; ROVERETO,ROVERETO,0464/420759
ISTITUTO COMPRENSIVO ROVERETO NORD,"Corso Bettini, 67 38068",SCUOLA SECONDARIA DI PRIMO GRADO &quot;L. NEGRELLI&quot; ROVERETO,ROVERETO,0464/420759
ISTITUTO COMPRENSIVO STRIGNO E TESINO,"Via Roma - Strigno, 14 38059",,CASTEL IVANO,0461/762046
ISTITUTO COMPRENSIVO STRIGNO E TESINO,"Via Brigata Abruzzi, 6 38050",SCUOLA PRIMARIA &quot;A. DEGASPERI&quot; PIEVE TESINO,PIEVE TESINO,0461/762046
ISTITUTO COMPRENSIVO STRIGNO E TESINO,"Via Roma, 52 38050",SCUOLA PRIMARIA OSPEDALETTO,OSPEDALETTO,0461/762046
ISTITUTO COMPRENSIVO STRIGNO E TESINO,"Via delle Praele, 21 38059",SCUOLA PRIMARIA SAMONE,SAMONE,0461/762046
ISTITUTO COMPRENSIVO FONDO - REVO',"Piazza Don Stefenelli - Fondo, 2 38020",SCUOLA PRIMARIA &quot;PADRE A. STEFENELLI&quot; FONDO,BORGO D'ANAUNIA,0463/831134
ISTITUTO COMPRENSIVO FONDO - REVO',"Via Nigaiola - Brez, 1 38028",SCUOLA PRIMARIA &quot;Stefano Zuech&quot; BREZ,NOVELLA,0463/831134
ISTITUTO COMPRENSIVO FONDO - REVO',"Via Madonna Pellegrina, 5 38020",SCUOLA PRIMARIA CASTELFONDO,BORGO D'ANAUNIA,0463/831134
ISTITUTO COMPRENSIVO FONDO - REVO',"Frazione Banco, 98 38010",SCUOLA PRIMARIA SANZENO,SANZENO,0463/831134
ISTITUTO COMPRENSIVO FONDO - REVO',"Via Manzoni, 7 38011",SCUOLA PRIMARIA SARNONICO,SARNONICO,0463/831134
ISTITUTO COMPRENSIVO FONDO - REVO',"Via Canestrini, 7 38028",SCUOLA SECONDARIA DI PRIMO GRADO &quot;C.A. Martini&quot; REVO',NOVELLA,0463/831134
ISTITUTO COMPRENSIVO FONDO - REVO',"Via Laviosa Zambotti - Fondo, 24 38020",SCUOLA SECONDARIA DI PRIMO GRADO &quot;G. B. LAMPI&quot; FONDO,BORGO D'ANAUNIA,0463/831134
ISTITUTO COMPRENSIVO GIUDICARIE ESTERIORI,"Via S Giovanni Bosco - Ponte Arche - Bleggio Inferiore, 14 38070",,COMANO TERME,0465/701472
ISTITUTO COMPRENSIVO GIUDICARIE ESTERIORI,"Via Risorgimento, 11/A 38070",SCUOLA PRIMARIA &quot;G. GRAFFER&quot; STENICO,STENICO,0465/701472
ISTITUTO COMPRENSIVO GIUDICARIE ESTERIORI,"Via di Prato - San Lorenzo, 15/A 38078",SCUOLA PRIMARIA &quot;SAN G. BOSCO&quot; S.LORENZO IN BANALE,SAN LORENZO DORSINO,0465/701472
ISTITUTO COMPRENSIVO GIUDICARIE ESTERIORI,"Frazione Campo Lomaso - Lomaso,  1 38070",SCUOLA PRIMARIA CAMPO LOMASO,COMANO TERME,0465/701472
ISTITUTO COMPRENSIVO GIUDICARIE ESTERIORI,"Via De Gasperi,   38075",SCUOLA PRIMARIA FIAVE',FIAVE',0465/701472
ISTITUTO COMPRENSIVO GIUDICARIE ESTERIORI,"Frazione Rango,   38071",SCUOLA PRIMARIA RANGO BLEGGIO SUPERIORE,BLEGGIO SUPERIORE,0465/701472
ISTITUTO COMPRENSIVO GIUDICARIE ESTERIORI,"Via S Giovanni Bosco - Ponte Arche - Bleggio Inferiore, 14 38070",SCUOLA SECONDARIA DI PRIMO GRADO &quot;G. PRATI&quot; PONTE ARCHE,COMANO TERME,0465/701472
ISTITUTO COMPRENSIVO LAVIS,"Via Sette, 13 38015",,LAVIS,0461/246535
ISTITUTO COMPRENSIVO LAVIS,"Piazza SS Filippo e Giacomo, 1 38010",SCUOLA PRIMARIA &quot;A. FRANK&quot; ZAMBANA,TERRE D'ADIGE,0461/246535
ISTITUTO COMPRENSIVO LAVIS,"Via Degasperi, 18 38015",SCUOLA PRIMARIA &quot;DON G. GRAZIOLI&quot; LAVIS,LAVIS,0461/246535
ISTITUTO COMPRENSIVO LAVIS,"Via Pilati, 31 38015",SCUOLA PRIMARIA PRESSANO LAVIS,LAVIS,0461/246535
ISTITUTO COMPRENSIVO LAVIS,"Via Sette, 13/A 38015",SCUOLA SECONDARIA DI PRIMO GRADO &quot;A. STAINER&quot; LAVIS,LAVIS,0461/246535
ISTITUTO COMPRENSIVO LEVICO TERME,"Via della Pace, 5 38056",,LEVICO TERME,0461/706146
ISTITUTO COMPRENSIVO LEVICO TERME,"Via Asilo, 3 38052",SCUOLA PRIMARIA &quot;C. CHIESA&quot; CALDONAZZO,CALDONAZZO,0461/706146
ISTITUTO COMPRENSIVO LEVICO TERME,"Via della Scuola, 2 38050",SCUOLA PRIMARIA &quot;PADRE B. MARTINELLI&quot; CALCERANICA AL LAGO,CALCERANICA AL LAGO,0461/706146
ISTITUTO COMPRENSIVO LEVICO TERME,"Via della Pace, 5 38056",SCUOLA PRIMARIA LEVICO TERME,LEVICO TERME,0461/706146
ISTITUTO COMPRENSIVO LEVICO TERME,"Via della Pace, 5 38056",SCUOLA SECONDARIA DI PRIMO GRADO &quot;G. B. DE GASPARIS&quot; LEVICO TERME,LEVICO TERME,0461/706146
ISTITUTO COMPRENSIVO MEZZOCORONA,"Via Fornai, 1 38016",,MEZZOCORONA,0461/605409
ISTITUTO COMPRENSIVO MEZZOCORONA,"Via Dante, 9 38016",SCUOLA PRIMARIA &quot;A. DEGASPERI&quot; MEZZOCORONA,MEZZOCORONA,0461/605409
ISTITUTO COMPRENSIVO MEZZOCORONA,"Via Biasi, 1 38010",SCUOLA PRIMARIA &quot;F. BIASI&quot; S.MICHELE ALL'ADIGE,SAN MICHELE ALL'ADIGE,0461/605409
ISTITUTO COMPRENSIVO MEZZOCORONA,"Via Rosmini, 5/A 38030",SCUOLA PRIMARIA &quot;F.LLI BRONZETTI&quot; ROVERE' DELLA LUNA,ROVERE' DELLA LUNA,0461/605409
ISTITUTO COMPRENSIVO MEZZOCORONA,"Via Marconi, 65 38010",SCUOLA PRIMARIA GRUMO,SAN MICHELE ALL'ADIGE,0461/605409
ISTITUTO COMPRENSIVO MEZZOCORONA,"Via Dante, 9 38016",SCUOLA SECONDARIA DI PRIMO GRADO &quot;E. CHINI&quot; MEZZOCORONA,MEZZOCORONA,0461/605409
ISTITUTO COMPRENSIVO MEZZOLOMBARDO - PAGANELLA,"Via Degli Alpini, 17 38017",,MEZZOLOMBARDO,0461/601125
ISTITUTO COMPRENSIVO MEZZOLOMBARDO - PAGANELLA,"Via Filos, 3 38017",SCUOLA PRIMARIA &quot;C. DARWIN&quot; MEZZOLOMBARDO,MEZZOLOMBARDO,0461/601125
ISTITUTO COMPRENSIVO MEZZOLOMBARDO - PAGANELLA,"Via Villa, 21 38010",SCUOLA PRIMARIA &quot;Don L. Rossi&quot; FAI DELLA PAGANELLA,FAI DELLA PAGANELLA,0461/601125
ISTITUTO COMPRENSIVO MEZZOLOMBARDO - PAGANELLA,"Via Alt Spaur, 5 38010",SCUOLA PRIMARIA &quot;San G. Bosco&quot; SPORMAGGIORE,SPORMAGGIORE,0461/601125
ISTITUTO COMPRENSIVO MEZZOLOMBARDO - PAGANELLA,"Piazza S Vito, 1 38010",SCUOLA PRIMARIA ANDALO,ANDALO,0461/601125
ISTITUTO COMPRENSIVO MEZZOLOMBARDO - PAGANELLA,"Piazza S Rocco, 15 38010",SCUOLA PRIMARIA NAVE SAN ROCCO,TERRE D'ADIGE,0461/601125
ISTITUTO COMPRENSIVO MEZZOLOMBARDO - PAGANELLA,"Via Degli Alpini, 17 38017",SCUOLA SECONDARIA DI PRIMO GRADO &quot;A. ECCHER DALL'ECO&quot; MEZZOLOMBARDO,MEZZOLOMBARDO,0461/601125
ISTITUTO COMPRENSIVO MEZZOLOMBARDO - PAGANELLA,"Piazza S Vito, 1 38010",SCUOLA SECONDARIA DI PRIMO GRADO &quot;C. Battisti&quot; ANDALO,ANDALO,0461/601125
ISTITUTO COMPRENSIVO MEZZOLOMBARDO - PAGANELLA,"Via Alt Spaur, 5 38010",SCUOLA SECONDARIA DI PRIMO GRADO SPORMAGGIORE,SPORMAGGIORE,0461/601125
ISTITUTO COMPRENSIVO ARCO,"Viale Stazione, 2 38062",SCUOLA PRIMARIA BOLOGNANO,ARCO,0464/518610
ISTITUTO COMPRENSIVO ARCO,"Via Maffei - San Martino, 2 38062",SCUOLA PRIMARIA MASSONE,ARCO,0464/516679
ISTITUTO COMPRENSIVO ARCO,"Via Fossa, 8 38062",SCUOLA PRIMARIA ROMARZOLLO,ARCO,0464/516187
ISTITUTO COMPRENSIVO ARCO,"Localita Prabi,   38062",SCUOLA SECONDARIA DI PRIMO GRADO &quot;N. D'ARCO&quot; ARCO,ARCO,0464/516429
ISTITUTO COMPRENSIVO AVIO,"Viale Degasperi, 69 38063",,AVIO,0464/684029
ISTITUTO COMPRENSIVO AVIO,"Via Perotti, 47 38063",SCUOLA PRIMARIA AVIO,AVIO,0464/684117
ISTITUTO COMPRENSIVO AVIO,"Piazza Conciliazione,  1 38063",SCUOLA PRIMARIA SABBIONARA DI AVIO,AVIO,0464/684067
ISTITUTO COMPRENSIVO AVIO,"Viale Degasperi, 69 38063",SCUOLA SECONDARIA DI PRIMO GRADO &quot;D. ALIGHIERI&quot; AVIO,AVIO,0464/684029
"ISTITUTO COMPRENSIVO BASSA VAL DI SOLE ""G. Ciccolini""","Via Taddei De Mauris, 4 38027",,MALE',0463/901237
"ISTITUTO COMPRENSIVO BASSA VAL DI SOLE ""G. Ciccolini""","Via delle Scuole, 25 38027",SCUOLA PRIMARIA &quot;B. PEZZEN&quot; CROVIANA,CROVIANA,0463/901237
"ISTITUTO COMPRENSIVO BASSA VAL DI SOLE ""G. Ciccolini""","Via Alla Croce, 17 38027",SCUOLA PRIMARIA &quot;C. CRISTOFORETTI&quot; MALE',MALE',0463/901237
"ISTITUTO COMPRENSIVO BASSA VAL DI SOLE ""G. Ciccolini""","Via Al Castello, 26 38022",SCUOLA PRIMARIA CALDES,CALDES,0463/901237
"ISTITUTO COMPRENSIVO BASSA VAL DI SOLE ""G. Ciccolini""","Piazza Madonna Della Pace - Dimaro, 14 38025",SCUOLA PRIMARIA DIMARO,DIMARO FOLGARIDA,0463/901237
"ISTITUTO COMPRENSIVO BASSA VAL DI SOLE ""G. Ciccolini""","Frazione San Bernardo,   38020",SCUOLA PRIMARIA S.BERNARDO RABBI,RABBI,0463/901237
"ISTITUTO COMPRENSIVO BASSA VAL DI SOLE ""G. Ciccolini""","Via Taddei De Mauris, 4 38027",SCUOLA SECONDARIA DI PRIMO GRADO &quot;G. CICCOLINI&quot; MALE',MALE',0463/901237
ISTITUTO COMPRENSIVO BORGO VALSUGANA,"Via Spagolla, 1 38051",,BORGO VALSUGANA,0461/753179
ISTITUTO COMPRENSIVO BORGO VALSUGANA,"Via IV Novembre, 3 38051",SCUOLA PRIMARIA &quot;V. DA FELTRE&quot; BORGO VALSUGANA,BORGO VALSUGANA,0461/753179
ISTITUTO COMPRENSIVO BORGO VALSUGANA,"Viale Trento, 2 38055",SCUOLA PRIMARIA GRIGNO,GRIGNO,0461/753179
ISTITUTO COMPRENSIVO BORGO VALSUGANA,"Via Spagolla, 1 38051",SCUOLA SECONDARIA DI PRIMO GRADO &quot;ORA E VEGLIA&quot; BORGO VALSUGANA,BORGO VALSUGANA,0461/753179
ISTITUTO COMPRENSIVO BORGO VALSUGANA,"Viale Trento,   38055",SCUOLA SECONDARIA DI PRIMO GRADO &quot;S. FANTE&quot; GRIGNO,GRIGNO,0461/753179
ISTITUTO COMPRENSIVO CAVALESE,"Piazza Verdi, 6 38033",,CAVALESE,0462/340314
ISTITUTO COMPRENSIVO CAVALESE,"Piazza Scuole, 1 38030",SCUOLA PRIMARIA CAPRIANA,CAPRIANA,0462/340314
ISTITUTO COMPRENSIVO CAVALESE,"Via Giovanelli, 2 38033",SCUOLA PRIMARIA CARANO,VILLE DI FIEMME,0462/340314
ISTITUTO COMPRENSIVO CAVALESE,"Frazione Casatta, 18/A 38040",SCUOLA PRIMARIA CASATTA VALFLORIANA,VALFLORIANA,0462/340314
ISTITUTO COMPRENSIVO CAVALESE,"Via Roma, 40 38030",SCUOLA PRIMARIA CASTELLO DI FIEMME,CASTELLO-MOLINA DI FIEMME,0462/340314
ISTITUTO COMPRENSIVO CAVALESE,"Largo Bosin, 2 38033",SCUOLA PRIMARIA CAVALESE,CAVALESE,0462/340314
ISTITUTO COMPRENSIVO CAVALESE,"Via Damiano Chiesa, 110 38033",SCUOLA PRIMARIA MASI CAVALESE,CAVALESE,0462/340314
ISTITUTO COMPRENSIVO CAVALESE,"Via Segherie, 64/B 38030",SCUOLA PRIMARIA MOLINA DI FIEMME,CASTELLO-MOLINA DI FIEMME,0462/340314
ISTITUTO COMPRENSIVO CAVALESE,"Piazza Verdi, 6 38033",SCUOLA SECONDARIA DI PRIMO GRADO &quot;G. SEGANTINI&quot; CAVALESE,CAVALESE,0462/340314
ISTITUTO COMPRENSIVO CEMBRA,"Via Negritelle - Cembra, 1 38034",,CEMBRA LISIGNAGO,0461/683006
ISTITUTO COMPRENSIVO CEMBRA,"Via Principale, 43 38040",SCUOLA PRIMARIA &quot;DON L. MILANI&quot; LASES,LONA-LASES,0461/683006
ISTITUTO COMPRENSIVO CEMBRA,"Via Campagna - Faver, 1 38030",SCUOLA PRIMARIA &quot;P. MARCONI&quot; FAVER,ALTAVALLE,0461/683006
ISTITUTO COMPRENSIVO CEMBRA,"Piazza S Lorenzo, 10 38048",SCUOLA PRIMARIA &quot;P. SARTORI&quot; SOVER,SOVER,0461/683006
ISTITUTO COMPRENSIVO CEMBRA,"Via dei Ciclamini - Cembra, 1/1 38034",SCUOLA PRIMARIA CEMBRA,CEMBRA LISIGNAGO,0461/683006
ISTITUTO COMPRENSIVO CEMBRA,"Via Dell Oratorio, 15 38030",SCUOLA PRIMARIA VERLA GIOVO,GIOVO,0461/683006
ISTITUTO COMPRENSIVO CEMBRA,"Via Negritelle - Cembra, 1 38034",SCUOLA SECONDARIA DI PRIMO GRADO &quot;A. VIELMETTI&quot; CEMBRA,CEMBRA LISIGNAGO,0461/683006
ISTITUTO COMPRENSIVO CEMBRA,"Frazione Scancio, 69 38047",SCUOLA SECONDARIA DI PRIMO GRADO STEDRO SEGONZANO,SEGONZANO,0461/683006
ISTITUTO COMPRENSIVO CEMBRA,"Via Al Grec, 2 38030",SCUOLA SECONDARIA DI PRIMO GRADO VERLA GIOVO,GIOVO,0461/683006
ISTITUTO COMPRENSIVO STRIGNO E TESINO,"Via XV Agosto, 68 38050",SCUOLA PRIMARIA SCURELLE,SCURELLE,0461/762046
ISTITUTO COMPRENSIVO STRIGNO E TESINO,"Piazza IV Novembre - Strigno, 12/A 38059",SCUOLA PRIMARIA STRIGNO,CASTEL IVANO,0461/762046
ISTITUTO COMPRENSIVO STRIGNO E TESINO,"Via Dei Molini - Agnedo, 36 38059",SCUOLA PRIMARIA VILLA AGNEDO,CASTEL IVANO,0461/762046
ISTITUTO COMPRENSIVO STRIGNO E TESINO,"Via Roma - Strigno, 14 38059",SCUOLA SECONDARIA DI PRIMO GRADO &quot;O. BRENTARI&quot; STRIGNO,CASTEL IVANO,0461/762046
ISTITUTO COMPRENSIVO STRIGNO E TESINO,"Via Battisti, 2 38053",SCUOLA SECONDARIA DI PRIMO GRADO CASTELLO TESINO,CASTELLO TESINO,0461/762046
ISTITUTO COMPRENSIVO TAIO,"Via Degli Alpini - Taio, 17 38012",,PREDAIA,0463/468193
ISTITUTO COMPRENSIVO TAIO,"Via Nazionale -Tres, 12 38012",SCUOLA PRIMARIA &quot;MONS. A. NEGRI&quot; TRES,PREDAIA,0463/468193
ISTITUTO COMPRENSIVO TAIO,"Via delle Scuole - Coredo,  6 38012",SCUOLA PRIMARIA COREDO,PREDAIA,0463/468193
ISTITUTO COMPRENSIVO TAIO,"Via delle Scuole - Coredo,  6 38012",SCUOLA SECONDARIA DI PRIMO GRADO &quot;F. BARBACOVI&quot; COREDO,PREDAIA,0463/468193
ISTITUTO COMPRENSIVO TAIO,"Via Degli Alpini - Taio, 17 38012",SCUOLA SECONDARIA DI PRIMO GRADO &quot;F. BARBACOVI&quot; TAIO,PREDAIA,0463/468193
ISTITUTO COMPRENSIVO TIONE,"Via Circonvallazione, 44 38079",,TIONE DI TRENTO,0465/321053
ISTITUTO COMPRENSIVO TIONE,"Via III Novembre - Roncone, 22 38087",SCUOLA PRIMARIA &quot;A. PRANDINI&quot; RONCONE,SELLA GIUDICARIE,0465/321053
ISTITUTO COMPRENSIVO TIONE,"Via Indipendenza - Bondo, 105 38087",SCUOLA PRIMARIA BONDO-BREGUZZO,SELLA GIUDICARIE,0465/321053
ISTITUTO COMPRENSIVO TIONE,"Via Roma - Ragoli, 5 38070",SCUOLA PRIMARIA RAGOLI,TRE VILLE,0465/321053
ISTITUTO COMPRENSIVO TIONE,"Via Pinzolo, 2 38079",SCUOLA PRIMARIA TIONE DI TRENTO,TIONE DI TRENTO,0465/321053
ISTITUTO COMPRENSIVO TIONE,"Via Fucina - Zuclo, 10 38079",SCUOLA PRIMARIA ZUCLO,BORGO LARES,0465/321053
ISTITUTO COMPRENSIVO TIONE,"Via Circonvallazione, 44 38079",SCUOLA SECONDARIA DI PRIMO GRADO &quot;LEGIONE TRENTINA&quot; TIONE DI TRENTO,TIONE DI TRENTO,0465/321053
ISTITUTO COMPRENSIVO TIONE,"Via III Novembre - Roncone, 22/A 38087",SCUOLA SECONDARIA DI PRIMO GRADO RONCONE,SELLA GIUDICARIE,0465/321053
ISTITUTO COMPRENSIVO TRENTO 1,"Via Znojmo, 24 38123",,TRENTO,0461/912740
ISTITUTO COMPRENSIVO TRENTO 1,"Piazza Monsignor Nicolini,  7 38123",SCUOLA PRIMARIA &quot;G. TOMASI&quot; VILLAZZANO,TRENTO,0461/912740
ISTITUTO COMPRENSIVO TRENTO 1,"Via Dei Rivi, 6 38123",SCUOLA PRIMARIA &quot;U. MOGGIOLI&quot; POVO,TRENTO,0461/912740
ISTITUTO COMPRENSIVO TRENTO 1,"Via Znojmo, 24 38123",SCUOLA SECONDARIA DI PRIMO GRADO &quot;G. PASCOLI&quot; POVO,TRENTO,0461/912740
"ISTITUTO COMPRENSIVO TRENTO 2 ""J. A. Comenius""","Via Ponte Alto, 2/1 38121",,TRENTO,0461/982113
"ISTITUTO COMPRENSIVO TRENTO 2 ""J. A. Comenius""","Via Ponte Alto, 2/1 38121",SCUOLA PRIMARIA &quot;E. BERNARDI&quot; COGNOLA,TRENTO,0461/982113
"ISTITUTO COMPRENSIVO TRENTO 2 ""J. A. Comenius""","Via S Vito, 169 38121",SCUOLA PRIMARIA &quot;R. BELENZANI&quot; S.VITO,TRENTO,0461/982113
"ISTITUTO COMPRENSIVO TRENTO 2 ""J. A. Comenius""","Piazza Menghin,  1 38121",SCUOLA PRIMARIA &quot;R. ZANDONAI&quot; MARTIGNANO,TRENTO,0461/982113
"ISTITUTO COMPRENSIVO TRENTO 2 ""J. A. Comenius""","Via Alle Campanelle, 23 38121",SCUOLA PRIMARIA CASA SERENA,TRENTO,0461/982113
"ISTITUTO COMPRENSIVO TRENTO 2 ""J. A. Comenius""","Via Ponte Alto, 2/1 38121",SCUOLA SECONDARIA DI PRIMO GRADO &quot;ARGENTARIO&quot; TRENTO,TRENTO,0461/982113
ISTITUTO COMPRENSIVO TRENTO 3,"Via Vittorio Veneto, 61 38122",,TRENTO,0461/934977
ISTITUTO COMPRENSIVO TRENTO 3,"Via Fogazzaro, 2 38122",SCUOLA PRIMARIA &quot;A. NICOLODI&quot; TRENTO,TRENTO,0461/934977
ISTITUTO COMPRENSIVO TRENTO 3,"Via S Pio X, 103 38122",SCUOLA PRIMARIA &quot;D. SAVIO&quot; TRENTO,TRENTO,0461/934977
ISTITUTO COMPRENSIVO TRENTO 3,"Via Zandonai, 4 38122",SCUOLA PRIMARIA &quot;G. B. DE GASPARI&quot; TRENTO,TRENTO,0461/934977
ISTITUTO COMPRENSIVO TRENTO 3,"Via Delle Masere, 5 38123",SCUOLA PRIMARIA RAVINA,TRENTO,0461/934977
ISTITUTO COMPRENSIVO TRENTO 3,"Via Vittorio Veneto, 61 38122",SCUOLA SECONDARIA DI PRIMO GRADO &quot;BRONZETTI - SEGANTINI&quot; TRENTO,TRENTO,0461/934977
ISTITUTO COMPRENSIVO TRENTO 4,"Piazzale Europa, 4 38123",,TRENTO,0461/920316
ISTITUTO COMPRENSIVO TRENTO 4,"Via Einaudi, 13 38123",SCUOLA PRIMARIA CLARINA TRENTO,TRENTO,0461/920316
ISTITUTO COMPRENSIVO TRENTO 4,"Piazzale Europa, 4 38123",SCUOLA PRIMARIA LOCALITA' MADONNA BIANCA TRENTO,TRENTO,0461/920316
ISTITUTO COMPRENSIVO TRENTO 4,"Largo Medaglie D Oro, 9 38122",SCUOLA PRIMARIA OSPEDALE INFANTILE TRENTO,TRENTO,0461/920316
ISTITUTO COMPRENSIVO TRENTO 4,"Viale Degli Olmi, 22 38123",SCUOLA SECONDARIA DI PRIMO GRADO &quot;O. WINKLER&quot; TRENTO,TRENTO,0461/920316
ISTITUTO COMPRENSIVO TRENTO 4,"Viale Degli Olmi, 26 38123",SCUOLA SECONDARIA DI PRIMO GRADO D'ARTE TRENTO,TRENTO,0461/920316
ISTITUTO COMPRENSIVO TRENTO 5,"Via S Giovanni Bosco, 8 38122",,TRENTO,0461/263331
ISTITUTO COMPRENSIVO TRENTO 5,"Via Dei Solteri, 22 38121",SCUOLA PRIMARIA &quot;A. GORFER&quot; TRENTO,TRENTO,0461/263331
ISTITUTO COMPRENSIVO TRENTO 5,"Via S Giovanni Bosco, 8 38122",SCUOLA PRIMARIA &quot;F. CRISPI&quot; TRENTO,TRENTO,0461/263331
ISTITUTO COMPRENSIVO TRENTO 5,"Piazza Sanzio, 13 38122",SCUOLA PRIMARIA &quot;R. SANZIO&quot; TRENTO,TRENTO,0461/263331
ISTITUTO COMPRENSIVO TRENTO 5,"Via Al Torrione, 2 38122",SCUOLA SECONDARIA DI PRIMO GRADO &quot;G. BRESADOLA&quot; TRENTO,TRENTO,0461/263331
ISTITUTO COMPRENSIVO TRENTO 6,"Corso Buonarroti, 50 38122",,TRENTO,0461/236214
ISTITUTO COMPRENSIVO TRENTO 6,"Via della Toresèla, 1 38123",SCUOLA PRIMARIA &quot;A. DEGASPERI&quot; SARDAGNA,TRENTO,0461/236214
ISTITUTO COMPRENSIVO TRENTO 6,"Via Schmid, 4 38121",SCUOLA PRIMARIA &quot;A. SCHMID&quot; CRISTO RE TRENTO,TRENTO,0461/236214
ISTITUTO COMPRENSIVO TRENTO 6,"Via Stoppani, 3 38121",SCUOLA PRIMARIA &quot;BEATO S. BELLESINI&quot; TRENTO,TRENTO,0461/236214
"ISTITUTO DI ISTRUZIONE ""A. Degasperi"" - BORGO VALSUGANA","Via XXIV Maggio, 7 38051",EDUCAZIONE PER ADULTI RELATIVA AL PRIMO CICLO,BORGO VALSUGANA,0461/753647
"ISTITUTO DI ISTRUZIONE ""A. Degasperi"" - BORGO VALSUGANA","Via XXIV Maggio, 7 38051",ISTITUTO PROFESSIONALE PER I SERVIZI SANITARI SERALE,BORGO VALSUGANA,0461/753647
"ISTITUTO DI ISTRUZIONE ""A. Degasperi"" - BORGO VALSUGANA","Via XXIV Maggio, 7 38051",ISTITUTO TECNICO PER IL SETTORE ECONOMICO,BORGO VALSUGANA,0461/753647
"ISTITUTO DI ISTRUZIONE ""A. Degasperi"" - BORGO VALSUGANA","Via XXIV Maggio, 7 38051",ISTITUTO TECNICO PER IL SETTORE ECONOMICO SERALE,BORGO VALSUGANA,0461/753647
"ISTITUTO DI ISTRUZIONE ""A. Degasperi"" - BORGO VALSUGANA","Via XXIV Maggio, 7 38051",ISTITUTO TECNICO PER IL SETTORE TECNOLOGICO,BORGO VALSUGANA,0461/753647
"ISTITUTO DI ISTRUZIONE ""A. Degasperi"" - BORGO VALSUGANA","Via XXIV Maggio, 7 38051",ISTITUTO TECNICO PER IL SETTORE TECNOLOGICO SERALE,BORGO VALSUGANA,0461/753647
"ISTITUTO DI ISTRUZIONE ""A. Degasperi"" - BORGO VALSUGANA","Via XXIV Maggio, 7 38051",LICEO DELLE SCIENZE UMANE,BORGO VALSUGANA,0461/753647
"ISTITUTO DI ISTRUZIONE ""A. Degasperi"" - BORGO VALSUGANA","Via XXIV Maggio, 7 38051",LICEO SCIENTIFICO,BORGO VALSUGANA,0461/753647
"ISTITUTO DI ISTRUZIONE ""A. Degasperi"" - BORGO VALSUGANA","Via XXIV Maggio, 7 38051",LICEO SCIENTIFICO OPZIONE SCIENZE APPLICATE,BORGO VALSUGANA,0461/753647
"ISTITUTO DI ISTRUZIONE ""L. Guetti"" - TIONE DI TRENTO","Via Durone, 53 38079",EDUCAZIONE PER ADULTI RELATIVA AL PRIMO CICLO,TIONE DI TRENTO,0465/321735
"ISTITUTO DI ISTRUZIONE ""L. Guetti"" - TIONE DI TRENTO","Via Durone, 53 38079",ISTITUTO TECNICO PER IL SETTORE ECONOMICO,TIONE DI TRENTO,0465/321735
"ISTITUTO DI ISTRUZIONE ""L. Guetti"" - TIONE DI TRENTO","Via Durone, 53 38079",ISTITUTO TECNICO PER IL SETTORE ECONOMICO SERALE,TIONE DI TRENTO,0465/321735
"ISTITUTO DI ISTRUZIONE ""L. Guetti"" - TIONE DI TRENTO","Via Durone, 53 38079",ISTITUTO TECNICO PER IL SETTORE TECNOLOGICO,TIONE DI TRENTO,0465/321735
"ISTITUTO DI ISTRUZIONE ""L. Guetti"" - TIONE DI TRENTO","Via Durone, 53 38079",ISTITUTO TECNICO PER IL SETTORE TECNOLOGICO SERALE,TIONE DI TRENTO,0465/321735
"ISTITUTO DI ISTRUZIONE ""L. Guetti"" - TIONE DI TRENTO","Via Durone, 53 38079",LICEO DELLE SCIENZE UMANE,TIONE DI TRENTO,0465/321735
"ISTITUTO DI ISTRUZIONE ""L. Guetti"" - TIONE DI TRENTO","Via Durone, 53 38079",LICEO LINGUISTICO,TIONE DI TRENTO,0465/321735
"ISTITUTO DI ISTRUZIONE ""L. Guetti"" - TIONE DI TRENTO","Via Durone, 53 38079",LICEO SCIENTIFICO,TIONE DI TRENTO,0465/321735
"ISTITUTO DI ISTRUZIONE ""L. Guetti"" - TIONE DI TRENTO","Via Durone, 53 38079",LICEO SCIENTIFICO OPZIONE SCIENZE APPLICATE,TIONE DI TRENTO,0465/321735
"ISTITUTO DI ISTRUZIONE ""La Rosa Bianca"" - CAVALESE","Via Gandhi, 1 38033",,CAVALESE,0462/341449
"ISTITUTO DI ISTRUZIONE ""La Rosa Bianca"" - CAVALESE","Via Gandhi, 1 38033",EDUCAZIONE PER ADULTI RELATIVA AL PRIMO CICLO,CAVALESE,0462/341449
"ISTITUTO DI ISTRUZIONE ""La Rosa Bianca"" - CAVALESE","Corso Degasperi, 14 38037",ISTITUTO TECNICO PER IL SETTORE ECONOMICO - PREDAZZO,PREDAZZO,0462/341449
"ISTITUTO DI ISTRUZIONE ""La Rosa Bianca"" - CAVALESE","Corso Degasperi, 14 38037",ISTITUTO TECNICO PER IL SETTORE ECONOMICO SERALE - PREDAZZO,PREDAZZO,0462/341449
"ISTITUTO DI ISTRUZIONE ""La Rosa Bianca"" - CAVALESE","Via Gandhi, 1 38033",ISTITUTO TECNICO PER IL SETTORE TECNOLOGICO,CAVALESE,0462/341449
"ISTITUTO DI ISTRUZIONE ""La Rosa Bianca"" - CAVALESE","Corso Degasperi, 14 38037",ISTITUTO TECNICO PER IL SETTORE TECNOLOGICO SERALE - PREDAZZO,PREDAZZO,0462/341449
"ISTITUTO DI ISTRUZIONE ""La Rosa Bianca"" - CAVALESE","Via Gandhi, 1 38033",LICEO DELLE SCIENZE UMANE OPZIONE ECONOMICO SOCIALE,CAVALESE,0462/341449
"ISTITUTO DI ISTRUZIONE ""La Rosa Bianca"" - CAVALESE","Via Gandhi, 1 38033",LICEO LINGUISTICO,CAVALESE,0462/341449
"ISTITUTO DI ISTRUZIONE ""La Rosa Bianca"" - CAVALESE","Via Gandhi, 1 38033",LICEO SCIENTIFICO,CAVALESE,0462/341449
"ISTITUTO DI ISTRUZIONE ""M. Curie"" - PERGINE VALSUGANA","Via S Pietro, 4 38057",,PERGINE VALSUGANA,0461/511397
"ISTITUTO DI ISTRUZIONE ""M. Curie"" - PERGINE VALSUGANA","Via S Pietro, 4 38057",EDUCAZIONE PER ADULTI RELATIVA AL PRIMO CICLO,PERGINE VALSUGANA,0461/511397
"ISTITUTO DI ISTRUZIONE ""M. Curie"" - PERGINE VALSUGANA","Viale Vittorio Emanuele, 5 38056",ISTITUTO TECNICO PER IL SETTORE ECONOMICO - LEVICO,LEVICO TERME,0461/706012
"ISTITUTO DI ISTRUZIONE ""M. Curie"" - PERGINE VALSUGANA","VIA SAN PIETRO, 4 38057",ISTITUTO TECNICO PER IL SETTORE ECONOMICO - PERGINE,PERGINE VALSUGANA,0461/511397
"ISTITUTO DI ISTRUZIONE ""M. Curie"" - PERGINE VALSUGANA","Via S Pietro, 4 38057",ISTITUTO TECNICO PER IL SETTORE ECONOMICO SERALE,PERGINE VALSUGANA,0461/511397
"ISTITUTO DI ISTRUZIONE ""M. Curie"" - PERGINE VALSUGANA","Via S Pietro, 4 38057",ISTITUTO TECNICO PER IL SETTORE TECNOLOGICO,PERGINE VALSUGANA,0461/511397
"ISTITUTO DI ISTRUZIONE ""M. Curie"" - PERGINE VALSUGANA","Via S Pietro, 4 38057",ISTITUTO TECNICO PER IL SETTORE TECNOLOGICO SERALE,PERGINE VALSUGANA,0461/511397
"ISTITUTO DI ISTRUZIONE ""M. Curie"" - PERGINE VALSUGANA","Via S Pietro, 4 38057",LICEO DELLE SCIENZE UMANE,PERGINE VALSUGANA,0461/511397
"ISTITUTO DI ISTRUZIONE ""M. Curie"" - PERGINE VALSUGANA","VIA SAN PIETRO, 4 38057",LICEO DELLE SCIENZE UMANE OPZIONE ECONOMICO SOCIALE,PERGINE VALSUGANA,0461/511397
"ISTITUTO DI ISTRUZIONE ""M. Curie"" - PERGINE VALSUGANA","Via S Pietro, 4 38057",LICEO LINGUISTICO,PERGINE VALSUGANA,0461/511397
"ISTITUTO DI ISTRUZIONE ""M. Curie"" - PERGINE VALSUGANA","Via S Pietro, 4 38057",LICEO SCIENTIFICO,PERGINE VALSUGANA,0461/511397
"ISTITUTO DI ISTRUZIONE ""M. Martini"" - MEZZOLOMBARDO","Via Perlasca, 4 38017",,MEZZOLOMBARDO,0461/601122
"ISTITUTO DI ISTRUZIONE ""M. Martini"" - MEZZOLOMBARDO","Via Perlasca, 4 38017",EDUCAZIONE PER ADULTI RELATIVA AL PRIMO CICLO,MEZZOLOMBARDO,0461/601122
"ISTITUTO DI ISTRUZIONE ""M. Martini"" - MEZZOLOMBARDO","Via Perlasca, 4 38017",ISTITUTO TECNICO PER IL SETTORE ECONOMICO,MEZZOLOMBARDO,0461/601122
"ISTITUTO DI ISTRUZIONE ""M. Martini"" - MEZZOLOMBARDO","Via Perlasca, 4 38017",ISTITUTO TECNICO PER IL SETTORE ECONOMICO SERALE,MEZZOLOMBARDO,0461/601122
"ISTITUTO DI ISTRUZIONE ""M. Martini"" - MEZZOLOMBARDO","Via Perlasca, 4 38017",ISTITUTO TECNICO PER IL SETTORE TECNOLOGICO,MEZZOLOMBARDO,0461/601122
"ISTITUTO DI ISTRUZIONE ""M. Martini"" - MEZZOLOMBARDO","Via Perlasca, 4 38017",LICEO DELLE SCIENZE UMANE OPZIONE ECONOMICO SOCIALE,MEZZOLOMBARDO,0461/601122
Circolo di coordinamento n. 4,"Via Per Belvedere, 8 38123",Scuola dell'Infanzia di Trento  Ravina  &quot;Girotondo&quot;,TRENTO,0461/922216
Circolo di coordinamento n. 4,"Via Delle Prede, 2 38123",Scuola dell'Infanzia di Trento  Romagnano  &quot;Gli Gnomi del Bosco&quot;,TRENTO,0461/349153
Circolo di coordinamento n. 4,"Via Giusti, 56 38122",Scuola dell'Infanzia di Trento S.Giuseppe   &quot;Maso Ginocchio - Collodi&quot;,TRENTO,0461/930042
Circolo di coordinamento n. 6,"Via Gilli, 3 38121",,TRENTO,0461/496956
Circolo di coordinamento n. 6,"Via Delle Scuole, 9 38030",Scuola dell'Infanzia di Giovo  &quot;Il Pellicano&quot;,GIOVO,0461/684978
Circolo di coordinamento n. 6,"Piazza Municipio - Grumes, 10 38030",Scuola dell'Infanzia di Grumes,ALTAVALLE,0461/685022
Circolo di coordinamento n. 6,"Via Alla Formigheta, 4 38121",Scuola dell'Infanzia di Trento  Martignano  &quot;Arcobaleno&quot;,TRENTO,0461/830411
Circolo di coordinamento n. 6,"Via Delle Sugarine, 38 38121",Scuola dell'Infanzia di Trento  Meano  &quot;M. R. Giobatta Partelloni&quot;,TRENTO,0461/991187
Circolo di coordinamento n. 6,"Localita Melta, 14 38121",Scuola dell'Infanzia di Trento  Melta di Gardolo  &quot;Il girasole&quot;,TRENTO,0461/991622
Circolo di coordinamento n. 6,"Via Dei Solteri, 24 38121",Scuola dell'Infanzia di Trento  Solteri  &quot;Il Quadrifoglio&quot;,TRENTO,0461/821343
Circolo di coordinamento n. 6,"Via Conti Spaur, 2 38010",Scuola dell'Infanzia di Zambana &quot;Girotondo&quot;,TERRE D'ADIGE,0461/241060
Circolo di coordinamento n. 7,"Via Filos, 2 38017",,MEZZOLOMBARDO,0461/494331
Circolo di coordinamento n. 7,"Piazza S Lorenzo, 2 38010",Scuola dell'Infanzia di Cavedago  &quot;L'albero azzurro&quot;,CAVEDAGO,0461/654340
Circolo di coordinamento n. 7,"Via Dallafior, 36 38023",Scuola dell'Infanzia di Cles  &quot;Casa del sole&quot;,CLES,0463/421760
Circolo di coordinamento n. 7,"Via Delle Scuole - Cunevo, 6 38010",Scuola dell'Infanzia di Cunevo,CONTÁ,0461/652520
Circolo di coordinamento n. 7,"Via Villa, 43 38010",Scuola dell'Infanzia di Fai Paganella,FAI DELLA PAGANELLA,0461/583360
Circolo di coordinamento n. 7,"Via Fratelli Pinamonti - Rallo - Tassullo,   38019",Scuola dell'Infanzia di Rallo di Tassullo  &quot;Nuovo germoglio&quot;,VILLE D'ANAUNIA,0463/451568
Circolo di coordinamento n. 7,"Via Canestrini, 9/A 38028",Scuola dell'Infanzia di Revò &quot;I girasoli&quot;,NOVELLA,0463/431044
Circolo di coordinamento n. 7,"Via Villotta, 10 38030",Scuola dell'Infanzia di Roverè della Luna,ROVERE' DELLA LUNA,0461/658519
Circolo di coordinamento n. 7,"Via Biasi, 1/D 38010",Scuola dell'Infanzia di S.Michele all' Adige  &quot;Il Germoglio&quot;,SAN MICHELE ALL'ADIGE,0461/662154
Circolo di coordinamento n. 7,"Piazza Anaunia, 2 38010",Scuola dell'Infanzia di Sporminore &quot;Fratelli Remondini&quot;,SPORMINORE,0461/641186
Circolo di coordinamento n. 7,"Via Castel Vervassium - Vervo, 7 38012",Scuola dell'Infanzia di Vervò  &quot;Il bosco degli gnomi&quot;,PREDAIA,0463/463314
Circolo di coordinamento n. 9,"Viale Trento, 37/E 38068",,ROVERETO,0464/493116
Circolo di coordinamento n. 9,"Via Volta, 1 38068",Scuola dell'Infanzia di Rovereto Fucine,ROVERETO,0464/420477
Circolo di coordinamento n. 9,"Via Livenza, 27 38068",Scuola dell'Infanzia di Rovereto Lizzana  &quot;Girogirotondo&quot;,ROVERETO,0464 437839
Circolo di coordinamento n. 9,"Via Venezia, 11 38068",Scuola dell'Infanzia di Rovereto Rione Sud  &quot;Il giardino incantato&quot;,ROVERETO,0464 431163
Circolo di coordinamento n. 9,"Via Telani, 4 38068",Scuola dell'Infanzia di Rovereto San Giorgio   &quot;Don A. Rossaro&quot;,ROVERETO,0464 433713
Centro Formazione Professionale ENAIP - Arco,"Via Gazzoletti, 8 38062",SETTORE INDUSTRIA E ARTIGIANATO,ARCO,0464/516465
SCUOLA PARITARIA LA VELA - FONDAZIONE FAMIGLIA MATERNA - ROVERETO,"Via Saibanti, 6 38068",SCUOLA PRIMARIA &quot;LA VELA&quot; ROVERETO,ROVERETO,0464/434047
SCUOLA PARITARIA LA VELA - FONDAZIONE FAMIGLIA MATERNA - ROVERETO,"Via Saibanti, 6 38068",,ROVERETO,0464/434047
Istituto Formazione Professionale Alberghiero - Rovereto,"Viale Dei Colli, 17 38068",SETTORE SERVIZI,ROVERETO,0464/439164
Istituto Formazione Professionale Alberghiero - Rovereto,"Viale Dei Colli, 17 38068",SETTORE SERVIZI SERALE,ROVERETO,0464/439164
SCUOLA PARITARIA LA VELA - FONDAZIONE FAMIGLIA MATERNA - ROVERETO,"Via Saibanti, 6 38068",SCUOLA SECONDARIA DI PRIMO GRADO &quot;LA VELA&quot; ROVERETO,ROVERETO,0464/435746
Centro Formazione Professionale Opera Armida Barelli - Levico,"Viale Roma, 61 38056",SETTORE SERVIZI,LEVICO TERME,0461/706145
ISTITUTO COMPRENSIVO VILLA LAGARINA,"Via Stockstadt Am Rhein, 3 38060",SCUOLA SECONDARIA DI PRIMO GRADO &quot;A. FRANK&quot; VILLA LAGARINA,VILLA LAGARINA,0464/411312
ISTITUTO COMPRENSIVO VILLA LAGARINA,"Via Stockstadt Am Rhein, 9 38060",SCUOLA PRIMARIA &quot;P. LODRON&quot; VILLA LAGARINA,VILLA LAGARINA,0464/411312
Centro Formazione Professionale UPT - Borgo Valsugana,"Via Borsieri, 2 38122",SETTORE SERVIZI,TRENTO,0461/987180
Centro Formazione Professionale UPT - Borgo Valsugana,"Via Giovanni Prati, 22 38122",,TRENTO,0461/987180
Istituto Formazione Professionale Alberghiero - Levico,"Via Ziehl, 5 38056",SETTORE INDUSTRIA E ARTIGIANATO,LEVICO TERME,0461/706294
Istituto Formazione Professionale Alberghiero - Levico,"Via Ziehl, 5 38056",SETTORE SERVIZI SERALE,LEVICO TERME,0461/706294
ISTITUTO COMPRENSIVO DI SCUOLA PRIMARIA E SECONDARIA DI PRIMIERO,"Via Delle Fonti - Transacqua, 10 38054",ISTITUTO TECNICO PER IL SETTORE ECONOMICO,PRIMIERO SAN MARTINO DI CASTROZZA,0439/62435
ISTITUTO COMPRENSIVO DI SCUOLA PRIMARIA E SECONDARIA DI PRIMIERO,"Via Delle Fonti - Transacqua, 10 38054",ISTITUTO TECNICO PER IL SETTORE TECNOLOGICO,PRIMIERO SAN MARTINO DI CASTROZZA,0439/62435
ISTITUTO COMPRENSIVO DI SCUOLA PRIMARIA E SECONDARIA DI PRIMIERO,"Via Delle Fonti - Transacqua, 10 38054",LICEO SCIENTIFICO OPZIONE SCIENZE APPLICATE,PRIMIERO SAN MARTINO DI CASTROZZA,0439/62435
ISTITUTO COMPRENSIVO MORI,"Via Del Car, 38 38060",SCUOLA PRIMARIA RONZO CHIENIS,RONZO-CHIENIS,0464/918669
"ISTITUTO TECNICO ECONOMICO E TECNOLOGICO ""G. Floriani"" - RIVA DEL GARDA","Viale Dei Tigli, 43 38066",ISTITUTO TECNICO PER IL SETTORE ECONOMICO SERALE,RIVA DEL GARDA,0464/578511
"Istituto Formazione Professionale Servizi alla Persona e Legno ""S. Pertini"" - Trento","Via Asiago, 14 38123",SETTORE INDUSTRIA E ARTIGIANATO SERALE,TRENTO,0461/933147
"ISTITUTO TECNICO ECONOMICO E TECNOLOGICO ""G. Floriani"" - RIVA DEL GARDA","Viale Dei Tigli, 43 38066",ISTITUTO TECNICO PER IL SETTORE TECNOLOGICO SERALE,RIVA DEL GARDA,0464/578511
ISTITUTO COMPRENSIVO BASSA ANAUNIA - TUENNO,"Via Maistrelli - Tuenno, 11 38019",SCUOLA SECONDARIA DI PRIMO GRADO &quot;E. Leonardi&quot; TUENNO,VILLE D'ANAUNIA,0461/655783
"ISTITUTO COMPRENSIVO TRENTO 7 ""Rita Levi Montalcini""","Via Delle Tre Croci, 40 38121",SCUOLA PRIMARIA &quot;E. DECARLI&quot; MEANO,TRENTO,0461/990287
"Istituto Formazione Professionale Servizi alla Persona e Legno ""S. Pertini"" - Trento","Viale Verona, 141 38123",SETTORE SERVIZI SERALE,TRENTO,0461/933147
ISTITUTO COMPRENSIVO DI SCUOLA PRIMARIA E SECONDARIA DI PRIMIERO,"Via Iv Novembre, 13 38050",SCUOLA PRIMARIA MEZZANO,MEZZANO,0439/62435
"ISTITUTO COMPRENSIVO TRENTO 7 ""Rita Levi Montalcini""","Via IV Novembre, 42/1 38121",SCUOLA PRIMARIA &quot;PIGARELLI&quot; GARDOLO TRENTO,TRENTO,0461/990287
"ISTITUTO TECNICO ECONOMICO E TECNOLOGICO ""G. Floriani"" - RIVA DEL GARDA","Viale Dei Tigli, 43 38066",EDUCAZIONE PER ADULTI RELATIVA AL PRIMO CICLO,RIVA DEL GARDA,0464/578511
"ISTITUTO DI ISTRUZIONE ""don L.Milani"" - ROVERETO","Via Balista, 6 38068",ISTITUTO PROFESSIONALE PER IL SETTORE DEI SERVIZI SERALE,ROVERETO,0464/485511
"LICEO ""A. Maffei"" - RIVA DEL GARDA","Via Alberti Lutti, 7 38066",LICEO SCIENTIFICO OPZIONE SCIENZE APPLICATE,RIVA DEL GARDA,0464/552316
ISTITUTO COMPRENSIVO DI SCUOLA PRIMARIA E SECONDARIA DI PRIMIERO,"Via Laghetto - San Martino Di Castrozza, 28 38054",SCUOLA PRIMARIA &quot;B. ZANETEL&quot; S.MARTINO DI CASTROZZA,PRIMIERO SAN MARTINO DI CASTROZZA,0439/62435
ISTITUTO COMPRENSIVO ROVERETO SUD,"Via Livenza, 1 38068",SCUOLA SECONDARIA DI PRIMO GRADO &quot;F. HALBHERR&quot; ROVERETO,ROVERETO,0464/420532
"ISTITUTO COMPRENSIVO CLES ""B. Clesio""","Via Dei Campi Neri, 1 38023",SCUOLA PRIMARIA CLES,CLES,0463/421457
"LICEO LINGUISTICO ""S. M. Scholl"" - TRENTO","Via Mattioli, 8 38122",LICEO LINGUISTICO,TRENTO,0461914499
"ISTITUTO DI ISTRUZIONE ""don L.Milani"" - ROVERETO","Via Balista, 6 38068",ISTITUTO PROFESSIONALE PER IL SETTORE DEI SERVIZI,ROVERETO,0464/485511
ISTITUTO COMPRENSIVO BASSA ANAUNIA - TUENNO,"Via Nazionale - Flavon,   38010",SCUOLA PRIMARIA FLAVON,CONTÁ,0461/655783
ISTITUTO COMPRENSIVO ROVERETO SUD,"Via II Novembre, 57 38068",SCUOLA PRIMARIA &quot;A. ROSMINI&quot; MARCO,ROVERETO,0464/420532
ISTITUTO COMPRENSIVO RIVA 1,"Viale Pernici, 21 38066",SCUOLA PRIMARIA &quot;N. PERNICI&quot; RIVA DEL GARDA,RIVA DEL GARDA,0464/553088
ISTITUTO COMPRENSIVO RIVA 1,"Via De Bonetti,   38069",SCUOLA PRIMARIA NAGO TORBOLE,NAGO-TORBOLE,0464/553088
"ISTITUTO DI ISTRUZIONE ""don L.Milani"" - ROVERETO","Via Balista, 6 38068",ISTITUTO TECNICO PER IL SETTORE ECONOMICO,ROVERETO,0464/485511
"ISTITUTO COMPRENSIVO CLES ""B. Clesio""","Via di Ronco - Mione, 17 38020",SCUOLA PRIMARIA &quot;O.Focherini M.Marchesi&quot; MIONE RUMO,RUMO,0463/421457
ISTITUTO COMPRENSIVO BASSA ANAUNIA - TUENNO,"Via Colle Verde, 3 38010",SCUOLA PRIMARIA &quot;MONS. S. WEBER&quot; DENNO,DENNO,0461/655783
"ISTITUTO DI ISTRUZIONE ""don L.Milani"" - ROVERETO","Via Balista, 6 38068",ISTITUTO TECNICO PER IL SETTORE ECONOMICO SERALE,ROVERETO,0464/485511
ISTITUTO COMPRENSIVO BASSA ANAUNIA - TUENNO,"Via S Maurizio, 3 38010",SCUOLA PRIMARIA &quot;M. PEZZI&quot; CAMPODENNO,CAMPODENNO,0461/655783
ISTITUTO COMPRENSIVO ROVERETO SUD,"Via Benacense, 32 38068",SCUOLA PRIMARIA &quot;D. ALIGHIERI&quot; ROVERETO,ROVERETO,0464/420532
"ISTITUTO COMPRENSIVO TRENTO 7 ""Rita Levi Montalcini""","Via IV Novembre, 35/1 38121",SCUOLA SECONDARIA DI PRIMO GRADO &quot;S. PEDROLLI&quot; GARDOLO TRENTO,TRENTO,0461/990287
"ISTITUTO TECNICO ECONOMICO E TECNOLOGICO ""G. Floriani"" - RIVA DEL GARDA","Viale Dei Tigli, 43 38066",ISTITUTO TECNICO PER IL SETTORE ECONOMICO,RIVA DEL GARDA,0464/578511
ISTITUTO COMPRENSIVO ROVERETO SUD,"Via Benacense, 32 38068",,ROVERETO,0464/420532
ISTITUTO COMPRENSIVO DI SCUOLA PRIMARIA E SECONDARIA DI PRIMIERO,"Viale Monte Grappa - Fiera di Primiero, 12 38054",SCUOLA SECONDARIA DI PRIMO GRADO &quot;L. NEGRELLI&quot;  - FIERA DI PRIMIERO,PRIMIERO SAN MARTINO DI CASTROZZA,0439/62435
"ISTITUTO COMPRENSIVO CLES ""B. Clesio""","Via Chini, 31 38023",SCUOLA SECONDARIA DI PRIMO GRADO &quot;V. Inama&quot; CLES,CLES,0463/421457
"ISTITUTO DI ISTRUZIONE ""don L.Milani"" - ROVERETO","Via Balista, 6 38068",EDUCAZIONE PER ADULTI RELATIVA AL PRIMO CICLO,ROVERETO,0464/485511
"ISTITUTO COMPRENSIVO CLES ""B. Clesio""","Frazione Livo,  92 38020",SCUOLA PRIMARIA VAROLLO LIVO &quot;Chiara Lubich&quot;,LIVO,0463/421457
ISTITUTO COMPRENSIVO BASSA ANAUNIA - TUENNO,"Via Maistrelli - Tuenno, 11 38019",SCUOLA PRIMARIA &quot;V. Maistrelli&quot; TUENNO,VILLE D'ANAUNIA,0461/655783
"ISTITUTO DI ISTRUZIONE ""don L.Milani"" - ROVERETO","Via Balista, 6 38068",,ROVERETO,0464/485511
ISTITUTO COMPRENSIVO ISERA - ROVERETO,"Viale Della Vittoria, 43 38068",SCUOLA SECONDARIA DI PRIMO GRADO &quot;A. DEGASPERI&quot; ROVERETO,ROVERETO,0464/431515
ISTITUTO COMPRENSIVO RIVA 1,"Via S Alessandro, 11 38066",SCUOLA PRIMARIA S. ALESSANDRO RIVA DEL GARDA,RIVA DEL GARDA,0464/553088
"LICEO ""A. Maffei"" - RIVA DEL GARDA","Via Alberti Lutti, 7 38066",LICEO LINGUISTICO,RIVA DEL GARDA,0464/552316
"LICEO ""A. Maffei"" - RIVA DEL GARDA","Via Alberti Lutti, 7 38066",LICEO MUSICALE E COREUTICO,RIVA DEL GARDA,0464/552316
ISTITUTO COMPRENSIVO BASSA ANAUNIA - TUENNO,"Piazza Pilati - Tassullo, 6 38019",SCUOLA PRIMARIA TASSULLO,VILLE D'ANAUNIA,0461/655783
ISTITUTO COMPRENSIVO BASSA ANAUNIA - TUENNO,"Via Colle Verde, 3 38010",SCUOLA SECONDARIA DI PRIMO GRADO &quot;V. VIELMETTI&quot; DENNO,DENNO,0461/655783
ISTITUTO COMPRENSIVO DI SCUOLA PRIMARIA E SECONDARIA DI PRIMIERO,"Via Delle Fonti - Transacqua, 10 38054",,PRIMIERO SAN MARTINO DI CASTROZZA,0439/62435
ISTITUTO COMPRENSIVO DI SCUOLA PRIMARIA E SECONDARIA DI PRIMIERO,"Localita Lausen, 13/Z 38050",SCUOLA SECONDARIA DI PRIMO GRADO CANAL SAN BOVO,CANAL SAN BOVO,0439/62435
"LICEO ""A. Maffei"" - RIVA DEL GARDA","Via Alberti Lutti, 7 38066",LICEO DELLE SCIENZE UMANE,RIVA DEL GARDA,0464/552316
"LICEO ""A. Maffei"" - RIVA DEL GARDA","Via Alberti Lutti, 7 38066",LICEO SCIENTIFICO,RIVA DEL GARDA,0464/552316
"ISTITUTO COMPRENSIVO TRENTO 7 ""Rita Levi Montalcini""","Via IV Novembre, 35/1 38121",,TRENTO,0461/990287
"LICEO ""A. Maffei"" - RIVA DEL GARDA","Via Alberti Lutti, 7 38066",LICEO CLASSICO,RIVA DEL GARDA,0464/552316
ISTITUTO COMPRENSIVO ROVERETO SUD,"Via Piave,  18 38068",SCUOLA PRIMARIA &quot;F. GUELLA&quot; LIZZANA,ROVERETO,0464/420532
"Istituto Formazione Professionale Servizi alla Persona e Legno ""S. Pertini"" - Trento","Via Asiago, 14 38123",SETTORE INDUSTRIA E ARTIGIANATO,TRENTO,0461/933147
ISTITUTO COMPRENSIVO MORI,"Via Giovanni XXIII, 64 38065",,MORI,0464/918669
"ISTITUTO TECNICO ECONOMICO E TECNOLOGICO ""G. Floriani"" - RIVA DEL GARDA","Viale Dei Tigli, 43 38066",ISTITUTO TECNICO PER IL SETTORE TECNOLOGICO,RIVA DEL GARDA,0464/578511
ISTITUTO COMPRENSIVO RIVA 1,"Viale Damiano Chiesa, 10 38066",SCUOLA SECONDARIA DI PRIMO GRADO &quot;D. CHIESA&quot; RIVA DEL GARDA,RIVA DEL GARDA,0464/553088
ISTITUTO COMPRENSIVO DI SCUOLA PRIMARIA E SECONDARIA DI PRIMIERO,"Localita Lausen, 14 38050",SCUOLA PRIMARIA &quot;F. LOSS&quot; CANAL SAN BOVO,CANAL SAN BOVO,0439/62435
ISTITUTO COMPRENSIVO BASSA ANAUNIA - TUENNO,"Piazza Guardi, 7 38010",SCUOLA PRIMARIA VIGO TON,TON,0461/655783
"ISTITUTO COMPRENSIVO TRENTO 7 ""Rita Levi Montalcini""","Via Alle Oselere,   38121",SCUOLA PRIMARIA &quot;I. CALVINO&quot; VIGO MEANO,TRENTO,0461/990287
"ISTITUTO COMPRENSIVO CLES ""B. Clesio""","Via Chini, 31 38023",,CLES,0463/421457
ISTITUTO COMPRENSIVO ISERA - ROVERETO,"Via Unione, 23 38068",SCUOLA PRIMARIA &quot;F.lli FILZI&quot; ROVERETO,ROVERETO,0464/431515
ISTITUTO COMPRENSIVO DI SCUOLA PRIMARIA E SECONDARIA DI PRIMIERO,"Via Sorelle Lucian - Tonadico, 8 38054",SCUOLA PRIMARIA &quot;CARD. J. BERNARDIN&quot; TONADICO,PRIMIERO SAN MARTINO DI CASTROZZA,0439/62435
"ISTITUTO COMPRENSIVO TRENTO 7 ""Rita Levi Montalcini""","Via S Anna, 3 38121",SCUOLA PRIMARIA &quot;S. ANNA&quot; GARDOLO TRENTO,TRENTO,0461/990287
ISTITUTO COMPRENSIVO MORI,"Via Scuole, 21 38065",SCUOLA PRIMARIA MORI,MORI,0464/918669
ISTITUTO COMPRENSIVO RIVA 1,"Viale Damiano Chiesa, 10 38066",,RIVA DEL GARDA,0464/553088
ISTITUTO COMPRENSIVO MORI,"Via Giovanni XXIII, 64 38065",SCUOLA SECONDARIA DI PRIMO GRADO &quot;B. MALFATTI&quot; MORI,MORI,0464/918669
Centro Formazione Professionale UPT - Trento,"Via Borsieri, 2 38122",SETTORE SERVIZI,TRENTO,0461/239997
Centro Formazione Professionale UPT - Cles,"Via D Agostin, 2 38023",SETTORE SERVIZI,CLES,0463/422820
Centro Formazione Professionale UPT - Arco,"Via Gazzoletti, 10 38062",SETTORE SERVIZI,ARCO,0464/556585
Centro Formazione Professionale UPT - Tione di Trento,"Via Roma, 15 38079",SETTORE SERVIZI,TIONE DI TRENTO,0465/321889
"ISTITUTO TECNICO ECONOMICO E TECNOLOGICO ""F. e G. Fontana"" - ROVERETO","Via Del Teatro, 4 38068",ISTITUTO TECNICO PER IL SETTORE TECNOLOGICO,ROVERETO,0464/436100
ISTITUTO COMPRENSIVO ROVERETO EST,"Frazione Moscheri,   38068",SCUOLA PRIMARIA MOSCHERI TRAMBILENO,TRAMBILENO,0464/433709
ISTITUTO COMPRENSIVO ROVERETO EST,"Frazione Piazza di Terragnolo, 18 38060",SCUOLA PRIMARIA &quot;N. VALDUGA&quot; TERRAGNOLO,TERRAGNOLO,0464/433709
ISTITUTO COMPRENSIVO ROVERETO EST,"Frazione Raossi,   38060",SCUOLA PRIMARIA &quot;F. CAVALLIN&quot; VALLARSA RAOSSI,VALLARSA,0464/433709
ISTITUTO COMPRENSIVO ROVERETO EST,"Corso Rosmini, 86 38068",SCUOLA SECONDARIA DI PRIMO GRADO &quot;D. CHIESA&quot; ROVERETO,ROVERETO,0464/433709
ISTITUTO COMPRENSIVO ROVERETO EST,"Via Dante, 41 38068",SCUOLA PRIMARIA &quot;REGINA ELENA&quot; ROVERETO,ROVERETO,0464/433709
Istituto Formazione Professionale Alberghiero - Rovereto,"Viale Dei Colli, 17 38068",SETTORE INDUSTRIA E ARTIGIANATO,ROVERETO,0464/439164
"Scuola dell'infanzia di Trento  ""Sacro Cuore""","Piazza S Teresa Verzeri, 4 38122",Scuola dell'Infanzia di Trento &quot;Sacro Cuore&quot;,TRENTO,0461-981465
"LICEO ""A. Maffei"" - RIVA DEL GARDA","Via Alberti Lutti, 7 38066",,RIVA DEL GARDA,0464/552316
"LICEO ""A. Rosmini"" - TRENTO","Via Malfatti, 2 38122",,TRENTO,0461/914400
Centro Formazione Professionale ENAIP - Villazzano,"Via Asiago, 14 38123",SETTORE INDUSTRIA E ARTIGIANATO SERALE,TRENTO,0461/920386
Circolo di coordinamento n. 8,"Via Fucina - Zuclo, 12 38079",Scuola dell'Infanzia di Zuclo Bolbeno,BORGO LARES,0465/322790
Circolo di coordinamento n. 8,"Via Circonvallazione, 65 38079",,TIONE DI TRENTO,0461/493385
Circolo di coordinamento n. 5,"Via dei Caduti di Sardagna, 8 38123",Scuola dell'Infanzia di Trento  Sardagna,TRENTO,0461/234186
Circolo di coordinamento n. 11,"Via Marconi, 17 38020",Scuola dell'Infanzia di Livo &quot;Battito d'ali&quot;,LIVO,0463/533522
Circolo di coordinamento n. 3,"Via Gilli, 3 38121",,TRENTO,0461/496952
Circolo di coordinamento n. 11,"Piazza Prati, 6 38011",Scuola dell'Infanzia di Cavareno &quot;Peter Pan&quot;,CAVARENO,0463/832426
Circolo di coordinamento n. 10,"Via Verdi, 38 38060",Scuola dell'Infanzia di Nogaredo,NOGAREDO,0464/411244
Circolo di coordinamento n. 10,"Via III Novembre, 33 38060",Scuola dell'Infanzia di Calliano &quot;Matite colorate&quot;,CALLIANO,0464/835165
Circolo di coordinamento n. 10,"Via Chiocchetti, 1 38068",Scuola dell'Infanzia di Rovereto Rione Nord &quot;Mille colori&quot;,ROVERETO,0464/435355
Circolo di coordinamento n. 10,"Viale Trento, 37/E 38068",,ROVERETO,0464/493114
Circolo di coordinamento n. 10,"Via Monti, 4A 38068",Scuola dell'Infanzia di Rovereto  S.Ilario &quot;Amici della scuola&quot;,ROVERETO,0464/411901
Circolo di coordinamento n. 11,"Via Berera - Monclassico, 6 38025",Scuola dell'Infanzia di Monclassico,DIMARO FOLGARIDA,0463/974606
Circolo di coordinamento n. 11,"Frazione Pracorno, 98/B 38020",Scuola dell'Infanzia di Rabbi,RABBI,0463/902652
Circolo di coordinamento n. 3,"Via Gocciadoro, 84 38122",Scuola dell'Infanzia di Trento  &quot;Crosina Sartori&quot;,TRENTO,0461/925679
Circolo di coordinamento n. 10,"Via Vanzetti, 3 38060",Scuola dell'Infanzia di Besenello,BESENELLO,0464/834946
Circolo di coordinamento n. 3,"Via Conci, 10 38123",Scuola dell'Infanzia di Trento  Villazzano 3  &quot;L'officina degli gnomi&quot;,TRENTO,0461/920367
Circolo di coordinamento n. 11,"Via Dei Baschenis, 3 38020",Scuola dell'Infanzia di Pellizzano &quot;Antonio Bontempelli&quot;,PELLIZZANO,335 1817040
Circolo di coordinamento n. 11,"Via Kessler, 23 38027",Scuola dell'Infanzia di Terzolas &quot;Caterina Graifenberg&quot;,TERZOLAS,0463/901977
Circolo di coordinamento n. 8,"Via Generale Dalla Chiesa - Bezzecca, 2 38067",Scuola dell'Infanzia di Bezzecca - A. Cis,LEDRO,0464/592133
Circolo di coordinamento n. 5,"Via Paludi, 9/1 38121",Scuola dell'Infanzia di Trento Gardolo Paludi  &quot;Biancaneve&quot;,TRENTO,0461/992128
Circolo di coordinamento n. 11,"Via Monsignor Rosati, 6 38010",Scuola dell'Infanzia di Romeno  &quot;Città della gioia&quot;,ROMENO,0463/875195
Circolo di coordinamento n. 5,"Via Dell Asilo, 8 38121",Scuola dell'Infanzia di Trento Roncafort  &quot;Margit Levinson&quot;,TRENTO,0461/960422
Circolo di coordinamento n. 10,"Via Puccini, 26 38068",Scuola dell'Infanzia di Rovereto Brione,ROVERETO,0464/412892
Circolo di coordinamento n. 5,"Via di Coltura, 3 38123",Scuola dell'Infanzia di Trento  Cadine  &quot;Il Melograno&quot;,TRENTO,0461/866302
Circolo di coordinamento n. 8,"Via Delle Ginestre, 31 38066",Scuola dell'Infanzia di Riva  &quot;Rione 2 giugno&quot;,RIVA DEL GARDA,0464/573920
Circolo di coordinamento n. 11,"Via Madonna Pellegrina, 5 38020",Scuola dell'Infanzia di Castelfondo,BORGO D'ANAUNIA,0463/889189
Circolo di coordinamento n. 3,"Via Bettini, 3 38123",Scuola dell'Infanzia di Trento Madonna Bianca &quot;L'albero del sole&quot;,TRENTO,0461/922124
Circolo di coordinamento n. 8,"Via S Giovanni Nepomuceno, 11 38089",Scuola dell'Infanzia di Darzo &quot;L'albero delle castagne&quot;,STORO,0465/685244
Circolo di coordinamento n. 11,"Frazione Mione, 54 38020",Scuola dell'Infanzia di Mione Rumo,RUMO,0463/530420
Circolo di coordinamento n. 3,"Via Della Resistenza, 48 38123",Scuola dell'Infanzia di Trento  Povo &quot;M.C. Conotter&quot;,TRENTO,0461/810574
Circolo di coordinamento n. 3,"Via della Predara, 16 38121",Scuola dell'Infanzia di Trento S.Martino,TRENTO,0461/237516
Circolo di coordinamento n. 11,"Via Manzoni, 22 38020",Scuola dell'Infanzia di Mezzana &quot;A. Ravelli&quot;,MEZZANA,0463/756018
Circolo di coordinamento n. 3,"Via Giovanelli, 6 38122",Scuola dell'Infanzia di Trento  &quot;Gianni Rodari&quot;,TRENTO,0461/986198
Circolo di coordinamento n. 10,"Piazzale Colonello Angheben, 6 38060",Scuola dell'Infanzia di Pomarolo  &quot;Don Rainoldi&quot;,POMAROLO,0464/410211
Circolo di coordinamento n. 11,"Maso Lana, 3 38010",Scuola dell'Infanzia di Ruffrè,RUFFRE' - MENDOLA,0463/870011
Circolo di coordinamento n. 11,"Via Roma, 83 38024",Scuola dell'Infanzia di Cogolo,PEIO,0463/754108
Circolo di coordinamento n. 5,"Via Degasperi - Terlago, 7 38070",Scuola dell'Infanzia di Terlago,VALLELAGHI,0461/860304
Circolo di coordinamento n. 5,"Via Lagolo - Lasino, 47 38076",Scuola dell'Infanzia di Lasino,MADRUZZO,0461/564600
Circolo di coordinamento n. 8,"Via S Antonio, 10 38074",Scuola dell'Infanzia di Dro,DRO,0464/504211
Circolo di coordinamento n. 11,"Viale S Lorenzo, 6 38011",Scuola dell'Infanzia di Sarnonico &quot;Giardino dei sogni&quot;,SARNONICO,0463/831603
Circolo di coordinamento n. 5,"Via Gilli, 3 38121",,TRENTO,0461/496955
Circolo di coordinamento n. 8,"Via Serafini - Preore, 92 38095",Scuola dell'Infanzia di Preore,TRE VILLE,0465/321393
Circolo di coordinamento n. 5,"Via Pedrini - Calavino, 28 38076",Scuola dell'Infanzia di Calavino,MADRUZZO,0461/564630
Circolo di coordinamento n. 3,"Via Gramsci, 11 38123",Scuola dell'Infanzia di Trento Clarina   &quot;Piccolo mondo&quot;,TRENTO,0461/925726
Circolo di coordinamento n. 8,"Via Fossa, 21 38062",Scuola dell'Infanzia di Romarzollo,ARCO,0464/532848
Circolo di coordinamento n. 8,"Piazza Milin - Tiarno di Sopra, 13 38067",Scuola dell'Infanzia di Tiarno di Sopra,LEDRO,0464/596077
Circolo di coordinamento n. 8,"Via don Bertolasi - Cimego, 64 38083",Scuola dell'Infanzia di Cimego,BORGO CHIESE,0465/621567
Giuseppe Veronesi - Centro di istruzione scolastica e di formazione professionale,"Piazzale Orsi, 1 38068",SETTORE INDUSTRIA E ARTIGIANATO SERALE,ROVERETO,0464/433484
Scuola dell'infanzia di Ala,"Via De Ferrari, 1 38061",,ALA,0464-674717
Scuola dell'infanzia di Lizzanella,"Corso Verona, 109 38068",,ROVERETO,0464-432307
"Scuola dell'infanzia di Pergine  ""G.B. Chimelli""","Piazza Garbari, 5 38057",Scuola dell'Infanzia di Pergine  &quot;G.B. Chimelli&quot;,PERGINE VALSUGANA,0461-502351
"Scuola dell'infanzia di Riva ""Giardino""","Viale Roma, 32 38066",Scuola dell'Infanzia di Riva  &quot;Giardino&quot;,RIVA DEL GARDA,0464-552360
"Scuola dell'infanzia di Pergine  ""G.B. Chimelli""","Piazza Garbari, 5 38057",,PERGINE VALSUGANA,0461-502351
"Scuola dell'infanzia di Lavis  ""Madre Maddalena di Canossa""","Via Dei Colli, 4 38015",Scuola dell'Infanzia di Lavis  &quot;Madre Maddalena di Canossa&quot;,LAVIS,0461 240366
"Scuola dell'infanzia di Riva ""Giardino""","Viale Roma, 32 38066",,RIVA DEL GARDA,0464-552360
Scuola dell'infanzia di Lodrone,"Salita Alla Bastia, 2 38089",,STORO,0465-685131
"Scuola dell'infanzia di Trento ""S. Antonio""","Via Adamello, 2 38122",,TRENTO,0461-911027
Scuola dell'infanzia di Ala,"Via De Ferrari, 1 38061",Scuola dell'Infanzia di Ala,ALA,0464-674717
Scuola dell'infanzia di Roncogno di Pergine,"Piazza di S Anna, 3 38057",Scuola dell'Infanzia di Roncogno di Pergine,PERGINE VALSUGANA,0461 502351
Scuola dell'infanzia di Castelnuovo,"Piazza Municipio, 2 38050",,CASTELNUOVO,0461-753637
"Scuola dell'infanzia di Marco Rovereto   ""G.e A. Rosmini Serbati""","Via Alla Stazione, 2 38068",Scuola dell'Infanzia di Marco Rovereto   &quot;G.e A. Rosmini Serbati&quot;,ROVERETO,0464-943313
Scuola dell'infanzia di Castelnuovo,"Piazza Municipio, 2 38050",Scuola dell'Infanzia di Castelnuovo,CASTELNUOVO,0461-753637
Scuola dell'infanzia di Ranzo,"Via al Castel Romano - Ranzo - Vezzano, 29 38070",,VALLELAGHI,0461-844137
"Scuola dell'infanzia di Tione di Trento ""Don Giovanni Failoni""","Piazza Battisti, 4 38079",,TIONE DI TRENTO,0465 321314
"Scuola dell'infanzia di Marco Rovereto   ""G.e A. Rosmini Serbati""","Via Alla Stazione, 2 38068",,ROVERETO,0464-943313
"Scuola dell'infanzia di Trento  ""A. Tambosi""","Via Francesco Ferruccio, 4 38122",,TRENTO,0461-237392
"Scuola dell'infanzia di Trento ""S. Antonio""","Via Adamello, 2 38122",Scuola dell'Infanzia di Trento &quot;S. Antonio&quot;,TRENTO,0461-911027
Scuola dell'infanzia di Predazzo,"Via Gabrielli, 1 38037",,PREDAZZO,0462-501312
Scuola dell'infanzia di Roncogno di Pergine,"Piazza di S Anna, 3 38057",,PERGINE VALSUGANA,0461 502351
Scuola dell'infanzia di Predazzo,"Via Gabrielli, 1 38037",Scuola dell'Infanzia di Predazzo,PREDAZZO,0462-501312
"Scuola dell'infanzia di Roncone  ""Mario Amistadi Sciavina""","Via Lucchi - Roncone, 1 38087",Scuola dell'Infanzia di Roncone  &quot;Mario Amistadi Sciavina&quot;,SELLA GIUDICARIE,0465-901285
"Scuola dell'infanzia di Trento ""G. B. Zanella ODV""","Via Gar, 1 38122",,TRENTO,0461-233744
Scuola dell'infanzia di Cavalese,"Via Regolani, 4 38033",,CAVALESE,0462-341673
Scuola dell'infanzia di Lodrone,"Salita Alla Bastia, 2 38089",Scuola dell'Infanzia di Lodrone,STORO,0465-685253
Scuola dell'infanzia di Daone,"Via Re di Castello - Daone, 57 38080",,VALDAONE,0465-674060
Scuola dell'infanzia di Lizzanella,"Corso Verona, 109 38068",Scuola dell'Infanzia di Lizzanella,ROVERETO,0464-432307
Scuola dell'infanzia di Cavalese,"Via Regolani, 4 38033",Scuola dell'Infanzia di Cavalese,CAVALESE,0462-341673
Scuola dell'infanzia di Ranzo,"Via al Castel Romano - Ranzo - Vezzano, 29 38070",Scuola dell'Infanzia di Ranzo,VALLELAGHI,0461-844205
"Scuola dell'infanzia di Trento ""G. B. Zanella ODV""","Via Gar, 1 38122",Scuola dell'Infanzia di Trento &quot;G.B. Zanella&quot;,TRENTO,0461-233744
"Scuola dell'infanzia di Lavis  ""Madre Maddalena di Canossa""","Via Dei Colli, 4 38015",,LAVIS,0461-240366
"Scuola dell'infanzia di Breguzzo - Bondo  ""Giuseppina Bonazza""","Via Marconi - Breguzzo, 5 38087",Scuola dell'Infanzia di Breguzzo - Bondo  &quot;Giuseppina Bonazza&quot;,SELLA GIUDICARIE,0465-901550
"Scuola dell'infanzia di Breguzzo - Bondo  ""Giuseppina Bonazza""","Via Marconi - Breguzzo, 5 38087",,SELLA GIUDICARIE,0465-901550
Scuola dell'infanzia di Lizzana,"Via Brigata Mantova, 1 38068",,ROVERETO,0464-433395
Scuola dell'infanzia di Masi di Cavalese,"Via Damiano Chiesa, 79 38033",,CAVALESE,0462-340557
"Scuola dell'infanzia di Trento  ""Sacro Cuore""","Piazza S Teresa Verzeri, 4 38122",,TRENTO,0461-981465
Scuola dell'infanzia di Daone,"Via Re di Castello - Daone, 57 38080",Scuola dell'Infanzia di Daone,VALDAONE,0465-674060
Scuola dell'infanzia di Lizzana,"Via Brigata Mantova, 1 38068",Scuola dell'Infanzia di Lizzana,ROVERETO,0464-433395
"Scuola dell'infanzia di Tione di Trento ""Don Giovanni Failoni""","Piazza Battisti, 4 38079",Scuola dell'Infanzia di Tione di Trento &quot;Don Giovanni Failoni&quot;,TIONE DI TRENTO,0465 321314
"Scuola dell'infanzia di Roncone  ""Mario Amistadi Sciavina""","Via Lucchi - Roncone, 1 38087",,SELLA GIUDICARIE,0465-901285
Scuola dell'infanzia di Masi di Cavalese,"Via Damiano Chiesa, 79 38033",Scuola dell'Infanzia di Masi di Cavalese,CAVALESE,0462 340557
"Scuola dell'infanzia di Trento  ""A. Tambosi""","Via Francesco Ferruccio, 4 38122",Scuola dell'Infanzia di Trento  &quot;A. Tambosi&quot;,TRENTO,0461-237392
Scuola dell'infanzia di Ziano di Fiemme,"Piazza Italia, 8 38030",,ZIANO DI FIEMME,3703621992
Scuola dell'infanzia di Ziano di Fiemme,"Piazza Italia, 8 38030",Scuola dell'Infanzia di Ziano di Fiemme,ZIANO DI FIEMME,3703621992
"Istituto Formazione Professionale Servizi alla Persona e Legno ""S. Pertini"" - Trento","Viale Verona, 141 38123",SETTORE SERVIZI,TRENTO,0461/933147
Centro Formazione Professionale UPT - Rovereto,"Via Pasqui, 10 38068",SETTORE SERVIZI,ROVERETO,0464/630050
FONDAZIONE EDMUND MACH - ISTITUTO AGRARIO SAN MICHELE ALL'ADIGE,"Via Mach, 1 38098",ISTITUTO TECNICO PER IL SETTORE TECNOLOGICO,SAN MICHELE ALL'ADIGE,0461/615213
FONDAZIONE EDMUND MACH - ISTITUTO AGRARIO SAN MICHELE ALL'ADIGE,"Via Mach, 1 38098",,SAN MICHELE ALL'ADIGE,0461/615213
FONDAZIONE EDMUND MACH - ISTITUTO AGRARIO SAN MICHELE ALL'ADIGE,"Via Mach, 1 38098",SETTORE AGRICOLTURA E AMBIENTE,SAN MICHELE ALL'ADIGE,0461/615213
Circolo di coordinamento n. 7,"Via Marconi, 65/A 38098",Scuola dell'Infanzia di Grumo &quot;Il giardino del sole&quot;,SAN MICHELE ALL'ADIGE,0461/650630
ISTITUTO COMPRENSIVO ROVERETO EST,"Corso Rosmini, 86 38068",,ROVERETO,0464/433709
Circolo di coordinamento n. 10,"Vicolo Zandonai,   38060",Scuola dell'Infanzia di Isera,ISERA,0464/437292
Istituto Formazione Professionale Alberghiero - Levico,"Via Ziehl, 5 38056",SETTORE SERVIZI,LEVICO TERME,0461/706294
"LICEO LINGUISTICO ""S. M. Scholl"" - TRENTO","Via Mattioli, 8 38122",,TRENTO,0461914499
GARDASCUOLA SOCIETA' COOPERATIVA SOCIALE - ARCO,"Via XXIV Maggio, 1 38062",ISTITUTO TECNICO PER IL SETTORE TECNOLOGICO,ARCO,0464/519546
ISTITUTO COMPRENSIVO VAL RENDENA,"Viale Della Pace, 10 38086",,PINZOLO,0465/501139
"ISTITUTO DI ISTRUZIONE ""A. Degasperi"" - BORGO VALSUGANA","Via XXIV Maggio, 7 38051",,BORGO VALSUGANA,0461/753647
Circolo di coordinamento n. 9,"Frazione Anghebeni, 1 38060",Scuola dell'Infanzia  di Anghebeni,VALLARSA,0464/493116
ISTITUTO COMPRENSIVO ISERA - ROVERETO,"Viale Provinciale,   38060",SCUOLA PRIMARIA &quot;R. LEVI MONTALCINI&quot; ISERA,ISERA,0464/431515
Circolo di coordinamento n. 5,"Via Dos Trento, 86 38122",Scuola dell'Infanzia di Trento Piedicastello,TRENTO,0461/983539
ISTITUTO COMPRENSIVO CIVEZZANO,"Via Telvana, 6 38045",SCUOLA PRIMARIA &quot;G. B. BORSIERI&quot; CIVEZZANO,CIVEZZANO,0461/858485
ISTITUTO COMPRENSIVO ISERA - ROVERETO,"Viale Della Vittoria, 43 38068",,ROVERETO,0464/431515
"ISTITUTO DI ISTRUZIONE ""L. Guetti"" - TIONE DI TRENTO","Via Durone, 53 38079",,TIONE DI TRENTO,0465/321735
Scuola dell'infanzia di Denno,"Via Ossanna, 3 38010",,DENNO,0461-655960
Circolo di coordinamento n. 9,"Via Romani, 4 38068",Scuola dell'Infanzia di Rovereto Noriglio,ROVERETO,0464 437430
"ISTITUTO TECNICO ECONOMICO E TECNOLOGICO ""G. Floriani"" - RIVA DEL GARDA","Viale Dei Tigli, 43 38066",,RIVA DEL GARDA,0464/578511
"LICEO SCIENTIFICO ""L. Da Vinci"" - TRENTO","Via Madruzzo, 24 38122",,TRENTO,0461/984099
ISTITUTO COMPRENSIVO CAVALESE,"Via Mercato, 10 38030",SCUOLA PRIMARIA VARENA,VILLE DI FIEMME,0462/340314
ISTITUTO COMPRENSIVO CEMBRA,"Frazione Stedro, 68 38047",SCUOLA PRIMARIA STEDRO SEGONZANO,SEGONZANO,0461/683006
ISTITUTO COMPRENSIVO MEZZOLOMBARDO - PAGANELLA,"Piazza Scuole, 2 38018",SCUOLA PRIMARIA &quot;L. Nicolussi&quot; MOLVENO,MOLVENO,0461/601125
ISTITUTO COMPRENSIVO LEVICO TERME,"Via Albere, 2 38050",SCUOLA PRIMARIA &quot;G. ROSANELLI&quot; TENNA,TENNA,0461/706146
ISTITUTO COMPRENSIVO FONDO - REVO',"Piazzale Savera, 1 38011",SCUOLA PRIMARIA CAVARENO,CAVARENO,0463/831134
Centro Formazione Professionale ENAIP - Ossana,"Via Di S Antonio, 1 38026",SETTORE SERVIZI,OSSANA,0463/751102
ISTITUTO COMPRENSIVO TAIO,"Via Heroldsberg - Taio, 5 38012",SCUOLA PRIMARIA TAIO,PREDAIA,0463/468193
Istituto Formazione Professionale Alberghiero - Levico,"Via Ziehl, 5 38056",,LEVICO TERME,0461/706294
Circolo di coordinamento n. 9,"Via della Cooperazione, 20 38065",Scuola dell'Infanzia di Tierno Mori  &quot;Il girasole&quot;,MORI,0464/917200
Scuola dell'infanzia di Denno,"Via Ossanna, 3 38010",Scuola dell'Infanzia di Denno,DENNO,0461-655960
ISTITUTO COMPRENSIVO BASSA ANAUNIA - TUENNO,"Via Colle Verde, 3 38010",,DENNO,0461/655783
Circolo di coordinamento n. 3,"Via Senesi, 3 38121",Scuola dell'Infanzia di Trento Cristo Re &quot;Piccolo Principe&quot;,TRENTO,0461/824334
Circolo di coordinamento n. 9,"Via Udine, 21 38068",Scuola dell'Infanzia di Rovereto &quot;C. Battisti&quot;,ROVERETO,0464/431239
Istituto Formazione Professionale Alberghiero - Rovereto,"Viale Dei Colli, 17 38068",,ROVERETO,0464/439164
"Istituto Formazione Professionale Servizi alla Persona e Legno ""S. Pertini"" - Trento","Viale Verona, 141 38123",,TRENTO,0461/933147
Centro Formazione Professionale ENAIP - Borgo Valsugana,"Via Giamaolle, 15 38051",SETTORE INDUSTRIA E ARTIGIANATO,BORGO VALSUGANA,0461/753037
Centro Formazione Professionale ENAIP - Ossana,"Via Di S Antonio, 1 38026",,OSSANA,0463/751102
Circolo di coordinamento n. 11,"Via della Gana, 10 38027",,MALE',0461/491939
Centro Formazione Professionale ENAIP - Borgo Valsugana,"Via Giamaolle, 15 38051",,BORGO VALSUGANA,0461/753037
Scuola dell'infanzia di Tesero,"Via Fia, 20 38038",,TESERO,0462-813045
Scuola dell'infanzia di Tesero,"Via Fia, 20 38038",Scuola dell'Infanzia di Tesero,TESERO,0462-813045
Scuola dell'infanzia di Villa Lagarina,"Via Monsignor Gosetti, 3 38060",Scuola dell'Infanzia di Villa Lagarina,VILLA LAGARINA,0464-411101
Scuola dell'infanzia di Villa Lagarina,"Via Monsignor Gosetti, 3 38060",,VILLA LAGARINA,0464-411101
